{"type":"FeatureCollection","features":[{"type":"Feature","properties":{"@id":"way/555283057","highway":"residential","lanes":2,"lit":"yes","maxspeed":"25 mph","name":"East Hoster Street","sidewalk":"both","surface":"paving_stones"},"geometry":{"coordinates":[[-82.9958273,39.951395],[-82.9957115,39.951408],[-82.9955227,39.9514292],[-82.9953132,39.9514527],[-82.9950413,39.9514832],[-82.99496979125743,39.95149135701877]],"type":"LineString"}},{"type":"Feature","properties":{"@id":"way/556013566","highway":"service","service":"alley"},"geometry":{"coordinates":[[-82.9888812559813,39.94930012851348],[-82.9895596,39.9493258],[-82.9902135,39.9493568]],"type":"LineString"}},{"type":"Feature","properties":{"@id":"way/351915855","highway":"service","service":"alley"},"geometry":{"coordinates":[[-82.9892063,39.94747794663827],[-82.9892534,39.9468966]],"type":"LineString"}},{"type":"Feature","properties":{"@id":"way/554940506","highway":"service","lanes":2,"maxspeed":"25 mph","name":"Macon Alley","sidewalk":"no","surface":"paving_stones"},"geometry":{"coordinates":[[-82.9929811,39.9491133],[-82.992865,39.948576],[-82.992815,39.948343],[-82.992807,39.948309],[-82.99267332944774,39.94764220076732]],"type":"LineString"}},{"type":"Feature","properties":{"@id":"way/21391216","highway":"residential","lane_markings":"no","lanes":2,"lit":"yes","maxspeed":"25 mph","name":"South Lazelle Street","name:etymology":"Henry Martyn Lazelle","name:etymology:wikidata":"Q15440257","sidewalk":"both","surface":"paving_stones"},"geometry":{"coordinates":[[-82.9952021,39.9527104],[-82.9951912,39.9526529],[-82.9951121,39.9522359],[-82.995084,39.952088],[-82.995021,39.95176],[-82.9949713,39.9514911],[-82.9949361,39.9512934],[-82.994929,39.9512527],[-82.994864,39.950881],[-82.994855,39.950823],[-82.994755,39.95032],[-82.994748,39.950285],[-82.9946085,39.949544],[-82.9945754,39.9493683],[-82.99454095428814,39.94918867976125]],"type":"LineString"}},{"type":"Feature","properties":{"@id":"way/558321040","highway":"service"},"geometry":{"coordinates":[[-82.99462010623756,39.940211605000854],[-82.9953977,39.9402716],[-82.9954662,39.9402686]],"type":"LineString"}},{"type":"Feature","properties":{"@id":"way/21353334","highway":"residential","lanes":2,"lit":"yes","maxspeed":"25 mph","name":"East Sycamore Street","name:etymology:wikidata":"Q156944","parking:both":"lane","parking:both:orientation":"parallel","sidewalk":"both","surface":"paving_stones"},"geometry":{"coordinates":[[-82.997989,39.948514],[-82.9978404,39.9485312],[-82.9978189,39.9485337],[-82.9977278,39.9485443],[-82.997093,39.948618],[-82.9969691,39.9486326],[-82.996254,39.948717],[-82.9954879,39.9488089],[-82.995326,39.948827]],"type":"LineString"}},{"type":"Feature","properties":{"@id":"way/21353347","highway":"residential","lanes":1,"lit":"yes","maxspeed":"25 mph","name":"East Sycamore Street","name:etymology:wikidata":"Q156944","oneway":"yes","sidewalk":"both","surface":"asphalt"},"geometry":{"coordinates":[[-82.995406,39.949224],[-82.9948551,39.9492021]],"type":"LineString"}},{"type":"Feature","properties":{"@id":"way/21353352","highway":"residential","lanes":2,"lit":"yes","maxspeed":"25 mph","name":"East Sycamore Street","name:etymology:wikidata":"Q156944","sidewalk":"both","surface":"paving_stones"},"geometry":{"coordinates":[[-82.993678,39.949141],[-82.9935644,39.9491362],[-82.9930802,39.949116],[-82.9929811,39.9491133],[-82.992694,39.949094],[-82.992213,39.949074],[-82.9915017,39.94905],[-82.990992,39.949023]],"type":"LineString"}},{"type":"Feature","properties":{"@id":"way/21353354","highway":"residential","lanes":2,"maxspeed":"25 mph","name":"East Sycamore Street","name:etymology:wikidata":"Q156944","sidewalk":"both","surface":"paving_stones"},"geometry":{"coordinates":[[-82.990891,39.94902],[-82.990431,39.949],[-82.990241,39.948991],[-82.990036,39.948983],[-82.989586,39.948966],[-82.989299,39.948955],[-82.988978,39.948943],[-82.988909,39.948942],[-82.988257,39.948917],[-82.987595,39.948892],[-82.987493,39.948872],[-82.986819,39.948842],[-82.986614,39.9488319],[-82.986012,39.948806]],"type":"LineString"}},{"type":"Feature","properties":{"@id":"way/21358026","highway":"residential","lanes":1,"lit":"yes","maxspeed":"25 mph","name":"East Hoster Street","oneway":"yes","sidewalk":"both","surface":"paving_stones"},"geometry":{"coordinates":[[-82.9984876,39.9510899],[-82.9983473,39.9511066],[-82.9983268,39.951109],[-82.9976489,39.9511797],[-82.9975917,39.9511862],[-82.996825,39.9512798],[-82.9967548,39.9512884],[-82.9963494,39.951335],[-82.9963311,39.9513371],[-82.9959586,39.9513799],[-82.9958273,39.951395]],"type":"LineString"}},{"type":"Feature","properties":{"@id":"way/21358939","highway":"residential","lanes":2,"maxspeed":"25 mph","name":"City Park Avenue","sidewalk":"separate","surface":"paving_stones"},"geometry":{"coordinates":[[-82.994775,39.940981],[-82.9947571,39.9408902],[-82.994661,39.940404],[-82.9946242,39.940213],[-82.9945628,39.9398939],[-82.9945487,39.9398232],[-82.9945358,39.9397531],[-82.9945001,39.939566],[-82.9944747,39.9394332],[-82.994434,39.93922],[-82.994421,39.9391206],[-82.9944176,39.9390816],[-82.994421,39.939021],[-82.9944515,39.9386713],[-82.994457,39.938608],[-82.9944612,39.9385504],[-82.9944901,39.9381556],[-82.9945201,39.9377466],[-82.994524,39.937693],[-82.9945285,39.9376308],[-82.9945553,39.9372629],[-82.9945578,39.9372329],[-82.9945871,39.9368346],[-82.994591,39.936782]],"type":"LineString"}},{"type":"Feature","properties":{"@id":"way/21358943","highway":"residential","lanes":2,"lit":"yes","maxspeed":"25 mph","name":"City Park Avenue","parking:lane:both":"parallel","parking:lane:both:parallel":"on_street","sidewalk":"both","surface":"paving_stones"},"geometry":{"coordinates":[[-82.99705,39.952801],[-82.997036,39.9527285],[-82.997008,39.9525832],[-82.9969873,39.952485],[-82.9968682,39.9518842],[-82.9968608,39.9518451],[-82.9967997,39.9515245],[-82.9967548,39.9512884],[-82.996636,39.950683],[-82.996518,39.950086],[-82.9963772,39.9493561],[-82.996254,39.948717],[-82.996132,39.948089],[-82.9959943,39.947372],[-82.995978,39.947287],[-82.99596,39.9471963],[-82.995817,39.946475],[-82.9956775,39.945768],[-82.995659,39.945674],[-82.9956389,39.9455857],[-82.9955152,39.9449358],[-82.995503,39.944873],[-82.9954904,39.9448067],[-82.9954279,39.9444781],[-82.995383,39.944242],[-82.995365,39.944148],[-82.9953513,39.9440762],[-82.9953336,39.9439852],[-82.995252,39.943562],[-82.9951698,39.9431368],[-82.995155,39.94306]],"type":"LineString"}},{"type":"Feature","properties":{"@id":"way/21360495","highway":"service","lanes":2,"maxspeed":"25 mph","name":"Berger Alley","service":"alley","sidewalk":"no","surface":"asphalt"},"geometry":{"coordinates":[[-82.9949361,39.9512934],[-82.994529,39.951279],[-82.9941734,39.9512697],[-82.9938914,39.9512553],[-82.993536,39.951238],[-82.9931919,39.9512195],[-82.992901,39.951206],[-82.9926442,39.9511941],[-82.992551,39.951187],[-82.992186,39.951174],[-82.9921358,39.9511715],[-82.9918213,39.9511418],[-82.991559,39.9511256],[-82.990924,39.951092],[-82.990446,39.951073],[-82.990304,39.9510677],[-82.989195,39.951026],[-82.989085,39.951017],[-82.988208,39.95098],[-82.988108,39.9509773]],"type":"LineString"}},{"type":"Feature","properties":{"@id":"way/21363213","highway":"service","lanes":2,"maxspeed":"25 mph","name":"Rader Alley","service":"alley","sidewalk":"no","surface":"asphalt"},"geometry":{"coordinates":[[-82.9941009,39.9521888],[-82.9941376,39.9517229],[-82.9941734,39.9512697],[-82.9942109,39.9507942],[-82.9942505,39.9502912],[-82.9943377,39.9491851]],"type":"LineString"}},{"type":"Feature","properties":{"@id":"way/21363262","highway":"residential","lanes":2,"maxspeed":"25 mph","name":"East Beck Street","sidewalk":"both","surface":"paving_stones"},"geometry":{"coordinates":[[-82.9891305,39.9505214],[-82.988796,39.950502],[-82.988145,39.950472],[-82.987374,39.950437],[-82.986698,39.950408],[-82.98589,39.950374]],"type":"LineString"}},{"type":"Feature","properties":{"@id":"way/21363263","highway":"residential","lanes":1,"lit":"yes","maxspeed":"25 mph","name":"East Beck Street","sidewalk":"both","surface":"paving_stones"},"geometry":{"coordinates":[[-82.994864,39.950881],[-82.9949505,39.9508711],[-82.9955999,39.9507967],[-82.995711,39.950784]],"type":"LineString"}},{"type":"Feature","properties":{"@id":"way/21363266","highway":"residential","lanes":2,"lit":"yes","maxspeed":"25 mph","name":"East Beck Street","sidewalk":"both","surface":"paving_stones"},"geometry":{"coordinates":[[-82.994855,39.950823],[-82.994566,39.95081],[-82.9942109,39.9507942],[-82.9939256,39.9507813],[-82.9936791,39.95077],[-82.993577,39.950765],[-82.9934772,39.9507611],[-82.992939,39.9507362],[-82.992589,39.950719]],"type":"LineString"}},{"type":"Feature","properties":{"@id":"way/21363270","highway":"residential","lane_markings":"no","lanes":2,"maxspeed":"25 mph","name":"East Beck Street","sidewalk":"both","surface":"paving_stones"},"geometry":{"coordinates":[[-82.990916,39.950616],[-82.990333,39.9505844],[-82.990122,39.950573],[-82.989465,39.950536]],"type":"LineString"}},{"type":"Feature","properties":{"@id":"way/21363274","highway":"residential","lane_markings":"no","lanes":2,"lit":"yes","maxspeed":"25 mph","name":"East Beck Street","sidewalk":"both","surface":"paving_stones"},"geometry":{"coordinates":[[-82.992561,39.950717],[-82.992299,39.950695],[-82.9922236,39.950689],[-82.9921345,39.9506834],[-82.991589,39.950649],[-82.990958,39.950619]],"type":"LineString"}},{"type":"Feature","properties":{"@id":"way/21365573","hgv":"no","highway":"residential","lanes":1,"lit":"yes","maxspeed":"25 mph","name":"Lathrop Street","oneway":"yes","sidewalk":"both","surface":"asphalt"},"geometry":{"coordinates":[[-82.987253,39.9519837],[-82.98723,39.9522956],[-82.9872294,39.9523037],[-82.98722,39.9524006]],"type":"LineString"}},{"type":"Feature","properties":{"@id":"way/21365574","highway":"service","lanes":2,"maxspeed":"25 mph","name":"Lathrop Street","service":"alley","sidewalk":"both","surface":"asphalt"},"geometry":{"coordinates":[[-82.987301,39.951369],[-82.987336,39.950942],[-82.987351,39.9507286],[-82.987374,39.950437]],"type":"LineString"}},{"type":"Feature","properties":{"@id":"way/21366839","highway":"tertiary","lanes":3,"lanes:backward":2,"lanes:forward":1,"lit":"yes","maxspeed":"25 mph","name":"Thurman Avenue","sidewalk":"separate","surface":"asphalt","turn:lanes:backward":"left;through|right","width":"36'","width:carriageway":"36'"},"geometry":{"coordinates":[[-82.9962581,39.9396221],[-82.9962181,39.9397113],[-82.9961875,39.9397565],[-82.9961662,39.939775],[-82.9961362,39.9397861],[-82.9960989,39.9397914],[-82.9959201,39.939814],[-82.9956962,39.9398368],[-82.995506,39.9398589],[-82.9953857,39.9398687]],"type":"LineString"}},{"type":"Feature","properties":{"@id":"way/21367027","highway":"service","lanes":2,"maxspeed":"25 mph","name":"Nursery Lane","service":"alley","sidewalk":"no","surface":"asphalt"},"geometry":{"coordinates":[[-82.994421,39.9391206],[-82.9943432,39.9391153],[-82.9927276,39.9390253],[-82.992651,39.939021],[-82.9925787,39.9390172],[-82.9922498,39.9390001],[-82.9907716,39.9389233],[-82.990689,39.938919],[-82.9906179,39.9389151],[-82.99036,39.938901],[-82.989971,39.938881],[-82.9879156,39.9387766],[-82.9878434,39.9387729],[-82.9877811,39.93877],[-82.986415,39.938707],[-82.9850688,39.9386418],[-82.985031,39.93864],[-82.985008,39.938636],[-82.984977,39.93863],[-82.9849434,39.9386279],[-82.983968,39.938567]],"type":"LineString"}},{"type":"Feature","properties":{"@id":"way/21370407","highway":"residential","lanes":2,"maxspeed":"25 mph","name":"Lear Street","sidewalk":"both","surface":"paving_stones"},"geometry":{"coordinates":[[-82.992631,39.949893],[-82.9916722,39.9498485],[-82.990972,39.949816],[-82.990937,39.949814],[-82.990182,39.949776]],"type":"LineString"}},{"type":"Feature","properties":{"@id":"way/21372006","highway":"residential","lane_markings":"no","lanes":2,"lit":"yes","maxspeed":"25 mph","name":"East Kossuth Street","name:etymology":"Lajos Kossuth","name:etymology:wikidata":"Q157040","parking:lane:both":"parallel","parking:lane:both:parallel":"on_street","sidewalk":"both","sidewalk:both:surface":"concrete","surface":"paving_stones"},"geometry":{"coordinates":[[-82.997398,39.945473],[-82.9972631,39.9454885],[-82.9972298,39.9454923],[-82.9966725,39.9455563],[-82.996501,39.945576],[-82.995659,39.945674],[-82.9948833,39.9457633],[-82.994738,39.94578],[-82.9945933,39.9457968],[-82.993867,39.945881],[-82.9931382,39.9459643],[-82.993001,39.94598],[-82.9928704,39.9459949],[-82.992157,39.946076],[-82.991632,39.946136],[-82.9912133,39.9461797],[-82.9911527,39.9461623],[-82.9911372,39.9461334],[-82.9911196,39.9460706],[-82.9910949,39.9460444],[-82.99107,39.946028],[-82.990708,39.946014],[-82.9905133,39.9460035],[-82.99041,39.945998],[-82.990129,39.9459844],[-82.989893,39.945973],[-82.9890263,39.9459329],[-82.988899,39.945927],[-82.988447,39.945906],[-82.9878889,39.9458783],[-82.9875,39.945859],[-82.9872376,39.9458471],[-82.985995,39.945792]],"type":"LineString"}},{"type":"Feature","properties":{"@id":"way/21372143","highway":"service","lanes":2,"maxspeed":"25 mph","name":"Briggs Street","service":"alley","sidewalk":"no","surface":"compacted"},"geometry":{"coordinates":[[-82.988046,39.951658],[-82.988065,39.95161],[-82.988077,39.951434],[-82.9881017,39.9510703],[-82.988108,39.9509773],[-82.988145,39.950472]],"type":"LineString"}},{"type":"Feature","properties":{"@id":"way/21372148","highway":"residential","lanes":2,"lit":"yes","maxspeed":"25 mph","name":"Mohawk Street","name:etymology:wikidata":"Q116971","sidewalk":"both","surface":"paving_stones","width":"34'","width:carriageway":"34'"},"geometry":{"coordinates":[[-82.993422,39.952657],[-82.993428,39.9525843],[-82.9934291,39.9525704],[-82.9934617,39.9521596],[-82.993497,39.9517041],[-82.993536,39.951238],[-82.99356,39.950933],[-82.993577,39.950765],[-82.993595,39.950573],[-82.9936137,39.9502633],[-82.9936852,39.9493666],[-82.9936888,39.9492519],[-82.993682,39.949158],[-82.993678,39.949141],[-82.993534,39.9484104],[-82.993526,39.94837],[-82.9934216,39.947838],[-82.993385,39.9476842],[-82.9933575,39.9475929]],"type":"LineString"}},{"type":"Feature","properties":{"@id":"way/21372153","highway":"residential","lanes":2,"lit":"yes","maxspeed":"25 mph","name":"Mohawk Street","name:etymology:wikidata":"Q116971","sidewalk":"both","surface":"paving_stones","width":"42'","width:carriageway":"42'"},"geometry":{"coordinates":[[-82.9933575,39.9475929],[-82.9932929,39.9474108],[-82.9932482,39.9472465],[-82.993162,39.946782],[-82.993001,39.94598],[-82.992842,39.945179],[-82.9927046,39.9444623],[-82.9926887,39.9443809],[-82.9926717,39.944296],[-82.992585,39.943874],[-82.9924988,39.943458],[-82.9924969,39.943449],[-82.992482,39.943377]],"type":"LineString"}},{"type":"Feature","properties":{"@id":"way/21372678","highway":"residential","lanes":2,"maxspeed":"25 mph","name":"East Sycamore Street","name:etymology:wikidata":"Q156944","sidewalk":"both","surface":"paving_stones"},"geometry":{"coordinates":[[-82.990992,39.949023],[-82.990891,39.94902]],"type":"LineString"}},{"type":"Feature","properties":{"@id":"way/21372905","highway":"residential","lanes":2,"lit":"yes","maxspeed":"25 mph","name":"South Fifth Street","sidewalk":"both","surface":"paving_stones"},"geometry":{"coordinates":[[-82.992442,39.9526265],[-82.9924412,39.9525431],[-82.9924423,39.9525296],[-82.9924596,39.9523104],[-82.9924753,39.9521106],[-82.992513,39.951644],[-82.992551,39.951187],[-82.9925843,39.9507767],[-82.992589,39.950719]],"type":"LineString"}},{"type":"Feature","properties":{"@id":"way/21372928","highway":"residential","lanes":2,"lit":"yes","maxspeed":"25 mph","name":"South Fifth Street","sidewalk":"both","surface":"paving_stones"},"geometry":{"coordinates":[[-82.992561,39.950717],[-82.9925658,39.9506607],[-82.992631,39.949893],[-82.992689,39.9491578],[-82.992694,39.949094]],"type":"LineString"}},{"type":"Feature","properties":{"@id":"way/21372931","highway":"residential","lanes":2,"lit":"yes","maxspeed":"25 mph","name":"South Fifth Street","sidewalk":"both","surface":"paving_stones"},"geometry":{"coordinates":[[-82.992213,39.949074],[-82.9921989,39.948998],[-82.9921161,39.9485529],[-82.992062,39.948312],[-82.991918,39.947609],[-82.991789,39.946935],[-82.9916481,39.9462181],[-82.991632,39.946136]],"type":"LineString"}},{"type":"Feature","properties":{"@id":"way/21373762","highway":"service","lanes":2,"maxspeed":"25 mph","name":"Dixon Alley","service":"alley","sidewalk":"no","surface":"asphalt"},"geometry":{"coordinates":[[-82.9920725,39.9526157],[-82.9920824,39.9525264],[-82.9920841,39.9525035],[-82.9921148,39.9520864],[-82.9921524,39.9516241],[-82.992186,39.951174],[-82.9922236,39.950689]],"type":"LineString"}},{"type":"Feature","properties":{"@id":"way/21374359","highway":"service","lanes":2,"maxspeed":"25 mph","name":"Macon Alley","service":"alley","sidewalk":"no","surface":"paving_stones"},"geometry":{"coordinates":[[-82.9927832,39.9526366],[-82.9927886,39.952554],[-82.9927898,39.9525379],[-82.9928195,39.9521263],[-82.9928523,39.951665],[-82.992901,39.951206],[-82.992939,39.9507362],[-82.9929915,39.9502255],[-82.9930802,39.949116]],"type":"LineString"}},{"type":"Feature","properties":{"@id":"way/21374362","highway":"service","lanes":2,"lit":"yes","maxspeed":"25 mph","name":"Macon Alley","service":"alley","sidewalk":"no","surface":"paving_stones"},"geometry":{"coordinates":[[-82.9924681,39.9476343],[-82.99233,39.946875],[-82.992157,39.946076],[-82.992009,39.94527],[-82.9918657,39.9445464],[-82.9918507,39.9444766],[-82.9918363,39.9444038],[-82.9917511,39.94397],[-82.9916728,39.9435405],[-82.9916599,39.9434701]],"type":"LineString"}},{"type":"Feature","properties":{"@id":"way/21374991","highway":"residential","lanes":2,"lit":"yes","maxspeed":"25 mph","name":"Stimmel Street","sidewalk":"both","surface":"paving_stones"},"geometry":{"coordinates":[[-82.997863,39.947886],[-82.9977274,39.9479018],[-82.9977005,39.9479049],[-82.9970204,39.9479838],[-82.9969726,39.9479893],[-82.9969197,39.9479956],[-82.996132,39.948089],[-82.9953464,39.9481784],[-82.9952,39.948195]],"type":"LineString"}},{"type":"Feature","properties":{"@id":"way/21375510","highway":"service","lanes":2,"maxspeed":"25 mph","name":"Blackberry Alley","sidewalk":"no","surface":"asphalt"},"geometry":{"coordinates":[[-82.989971,39.938881],[-82.989914,39.9395055],[-82.9899087,39.9395743],[-82.9899064,39.9396434],[-82.989859,39.940142],[-82.989807,39.940716],[-82.989755,39.941296],[-82.98974,39.941459],[-82.989708,39.941857],[-82.9896832,39.9421031],[-82.989645,39.942483],[-82.989602,39.943088],[-82.9895505,39.9436643],[-82.9895095,39.9440896],[-82.9894729,39.9445243]],"type":"LineString"}},{"type":"Feature","properties":{"@id":"way/21377426","highway":"residential","lanes":2,"lit":"yes","maxspeed":"25 mph","name":"Siebert Street","sidewalk":"both","surface":"asphalt"},"geometry":{"coordinates":[[-82.990319,39.943126],[-82.9902118,39.9431185],[-82.9902007,39.9431179],[-82.989602,39.943088],[-82.988726,39.943043],[-82.9874819,39.9429784],[-82.9860518,39.9429015],[-82.9858899,39.9428916],[-82.984636,39.9428193]],"type":"LineString"}},{"type":"Feature","properties":{"@id":"way/21379523","highway":"residential","lanes":2,"lit":"yes","maxspeed":"25 mph","name":"East Frankfort Street","name:etymology":"Frankfurt","name:etymology:wikidata":"Q1794","sidewalk":"both","surface":"paving_stones"},"geometry":{"coordinates":[[-82.992674,39.947644],[-82.9924681,39.9476343]],"type":"LineString"}},{"type":"Feature","properties":{"@id":"way/21379526","highway":"residential","lanes":2,"lit":"yes","maxspeed":"25 mph","name":"East Frankfort Street","name:etymology":"Frankfurt","name:etymology:wikidata":"Q1794","sidewalk":"both","surface":"paving_stones"},"geometry":{"coordinates":[[-82.991373,39.947581],[-82.991199,39.947573]],"type":"LineString"}},{"type":"Feature","properties":{"@id":"way/21379528","highway":"residential","lanes":2,"maxspeed":"25 mph","name":"Jaeger Street","sidewalk":"both","surface":"paving_stones"},"geometry":{"coordinates":[[-82.990036,39.948983],[-82.989934,39.948437],[-82.989912,39.948321],[-82.989766,39.947595],[-82.9897708,39.9475277],[-82.9897716,39.947503]],"type":"LineString"}},{"type":"Feature","properties":{"@id":"way/21379879","highway":"residential","lanes":2,"maxspeed":"25 mph","name":"Concord Place","parking:left":"lane","parking:left:orientation":"parallel","parking:right":"no","sidewalk":"both","surface":"asphalt"},"geometry":{"coordinates":[[-82.995252,39.943562],[-82.9944297,39.9436582],[-82.994329,39.94367],[-82.9942225,39.9436818],[-82.993456,39.943772],[-82.992585,39.943874],[-82.9917511,39.94397],[-82.9906907,39.9440889],[-82.9901987,39.9440619]],"type":"LineString"}},{"type":"Feature","properties":{"@id":"way/21383328","highway":"residential","lanes":1,"lit":"yes","maxspeed":"25 mph","name":"East Willow Street","oneway":"yes","sidewalk":"both","surface":"paving_stones"},"geometry":{"coordinates":[[-82.998252,39.949888],[-82.9981519,39.9498996],[-82.9976868,39.9499539],[-82.9974309,39.9499838],[-82.997361,39.949992],[-82.996518,39.950086],[-82.9957329,39.9501729],[-82.995596,39.950188]],"type":"LineString"}},{"type":"Feature","properties":{"@id":"way/21383694","hgv":"no","highway":"residential","lanes":2,"lit":"yes","maxspeed":"25 mph","name":"Jaeger Street","sidewalk":"both","surface":"paving_stones"},"geometry":{"coordinates":[[-82.9897716,39.947503],[-82.989819,39.946923],[-82.9898599,39.9464001],[-82.989877,39.946182],[-82.989893,39.945973],[-82.9899068,39.9458198],[-82.9899229,39.9456406],[-82.989951,39.945327],[-82.9899836,39.9449492],[-82.9899962,39.9448032],[-82.990009,39.9446546],[-82.990018,39.9445551]],"type":"LineString"}},{"type":"Feature","properties":{"@id":"way/21383697","highway":"residential","lanes":2,"lit":"yes","maxspeed":"25 mph","name":"Jaeger Street","sidewalk":"both","surface":"paving_stones"},"geometry":{"coordinates":[[-82.9901373,39.9445616],[-82.9901504,39.9444576],[-82.9901917,39.9441261],[-82.9901987,39.9440619],[-82.9902319,39.9437418],[-82.990246,39.943633]],"type":"LineString"}},{"type":"Feature","properties":{"@id":"way/21383700","highway":"residential","lanes":2,"maxspeed":"25 mph","name":"Jaeger Street","sidewalk":"no","surface":"asphalt"},"geometry":{"coordinates":[[-82.990122,39.950573],[-82.990182,39.949776],[-82.9902135,39.9493568],[-82.990241,39.948991]],"type":"LineString"}},{"type":"Feature","properties":{"@id":"way/21383711","cycleway":"shared_lane","highway":"residential","lane_markings":"yes","lanes":2,"lit":"yes","maxspeed":"25 mph","name":"Jaeger Street","sidewalk":"separate","surface":"asphalt","width":"36'","width:carriageway":"36'"},"geometry":{"coordinates":[[-82.990246,39.943633],[-82.9902678,39.9435251],[-82.9903022,39.943329],[-82.990319,39.943126],[-82.990384,39.942374],[-82.9904051,39.9421456],[-82.990428,39.941897],[-82.9904335,39.9418335],[-82.990466,39.941456],[-82.990482,39.941298],[-82.9905196,39.9409181],[-82.990536,39.940753]],"type":"LineString"}},{"type":"Feature","properties":{"@id":"way/21383720","NHS":"yes","hgv":"designated","hgv:national_network":"yes","highway":"primary","lanes":1,"lit":"yes","maxspeed":"35 mph","name":"East Livingston Avenue","name:etymology":"Alexander W. Livingston","name:etymology:wikidata":"Q2833223","old_ref:fap":22,"oneway":"yes","ref":"US 23","sidewalk":"right","source:hgv:national_network":"Title 23: Highways Part 658 http://ecfr.gpoaccess.gov/cgi/t/text/text-idx?c=ecfr&rgn=div5&view=text&node=23:1.0.1.7.33&idno=23","source:old_ref:fap":"ODOT http://www.dot.state.oh.us/Divisions/Planning/TechServ/prod_services/Pages/RI06.aspx http://www.dot.state.oh.us/Divisions/ContractAdmin/Contracts/Pages/NHS-FAP.aspx","surface":"asphalt","width":"20'","width:carriageway":"20'"},"geometry":{"coordinates":[[-82.998783,39.952564],[-82.9985755,39.9525917],[-82.997884,39.952684],[-82.9975149,39.9527358],[-82.99705,39.952801]],"type":"LineString"}},{"type":"Feature","properties":{"@id":"way/21383759","cycleway":"shared_lane","hgv":"designated","hgv:national_network":"yes","highway":"primary","lanes":3,"lanes:backward":2,"lanes:forward":1,"lit":"yes","maxspeed":"35 mph","name":"East Livingston Avenue","name:etymology":"Alexander W. Livingston","name:etymology:wikidata":"Q2833223","old_ref:fap":11,"oneway":"no","ref":"US 33","sidewalk":"separate","source:hgv:national_network":"Title 23: Highways Part 658 http://ecfr.gpoaccess.gov/cgi/t/text/text-idx?c=ecfr&rgn=div5&view=text&node=23:1.0.1.7.33&idno=23","source:old_ref:fap":"ODOT http://www.dot.state.oh.us/Divisions/Planning/TechServ/prod_services/Pages/RI06.aspx http://www.dot.state.oh.us/Divisions/ContractAdmin/Contracts/Pages/NHS-FAP.aspx","surface":"asphalt","width":"42'","width:carriageway":"42'"},"geometry":{"coordinates":[[-82.993422,39.952657],[-82.9933461,39.952654],[-82.9933357,39.9526538],[-82.9932785,39.9526523]],"type":"LineString"}},{"type":"Feature","properties":{"@id":"way/21384732","highway":"service","lanes":2,"maxspeed":"25 mph","name":"Fieser Street","service":"alley","sidewalk":"no","surface":"asphalt"},"geometry":{"coordinates":[[-82.9930811,39.9526456],[-82.9930879,39.9525684],[-82.9930891,39.9525528],[-82.9931176,39.9521832],[-82.993121,39.9521396],[-82.9931235,39.9521067],[-82.9931563,39.9516819],[-82.9931919,39.9512195],[-82.9932018,39.9510913]],"type":"LineString"}},{"type":"Feature","properties":{"@id":"way/21384885","highway":"residential","lanes":2,"lit":"yes","maxspeed":"25 mph","name":"East Columbus Street","name:etymology":"Christopher Columbus","name:etymology:wikidata":"Q7322","sidewalk":"both","surface":"paving_stones"},"geometry":{"coordinates":[[-82.997555,39.946277],[-82.9974107,39.9462943],[-82.9973789,39.9462981],[-82.9968372,39.946363],[-82.996662,39.946384],[-82.9959319,39.9464626],[-82.995817,39.946475],[-82.9957242,39.946486],[-82.9950297,39.946568],[-82.994894,39.946584],[-82.9947461,39.9466006],[-82.994021,39.946682],[-82.993162,39.946782],[-82.99233,39.946875],[-82.9918723,39.9469258],[-82.991789,39.946935],[-82.9917028,39.9469447],[-82.991336,39.946986],[-82.991253,39.946991],[-82.991199,39.94699],[-82.990635,39.94696],[-82.9900525,39.9469336],[-82.989819,39.946923],[-82.9892534,39.9468966],[-82.9889286,39.9468814],[-82.988792,39.946875],[-82.988368,39.946855],[-82.9878059,39.9468267],[-82.987494,39.946811],[-82.9871536,39.9467983]],"type":"LineString"}},{"type":"Feature","properties":{"@id":"way/21385479","highway":"service","lanes":2,"lit":"yes","maxspeed":"25 mph","name":"East Brewers Street","sidewalk":"right","surface":"paving_stones"},"geometry":{"coordinates":[[-82.998725,39.9522779],[-82.9986036,39.9522978],[-82.9985864,39.9523005],[-82.997882,39.9523843],[-82.997826,39.952391]],"type":"LineString"}},{"type":"Feature","properties":{"@id":"way/21387200","highway":"residential","lanes":2,"maxspeed":"25 mph","name":"South Sixth Street","sidewalk":"both","surface":"paving_stones"},"geometry":{"coordinates":[[-82.990916,39.950616],[-82.990931,39.950442],[-82.990972,39.949816]],"type":"LineString"}},{"type":"Feature","properties":{"@id":"way/21387205","highway":"residential","lanes":2,"maxspeed":"25 mph","name":"South Sixth Street","sidewalk":"both","surface":"asphalt"},"geometry":{"coordinates":[[-82.990891,39.94902],[-82.990776,39.948477],[-82.990588,39.947596],[-82.9905906,39.9475464],[-82.990594,39.947482],[-82.990635,39.94696],[-82.9906783,39.9464711],[-82.9906804,39.9464477],[-82.990686,39.946385],[-82.990693,39.946265],[-82.990708,39.946014]],"type":"LineString"}},{"type":"Feature","properties":{"@id":"way/21387213","hgv":"no","highway":"residential","lanes":2,"lit":"yes","maxspeed":"25 mph","name":"South Sixth Street","sidewalk":"both","surface":"paving_stones"},"geometry":{"coordinates":[[-82.9908176,39.9525555],[-82.9908261,39.9524667],[-82.9908268,39.9524564],[-82.9908481,39.9521601],[-82.990857,39.952037],[-82.990893,39.951564],[-82.990924,39.951092],[-82.990958,39.950619]],"type":"LineString"}},{"type":"Feature","properties":{"@id":"way/21387215","highway":"residential","lanes":2,"maxspeed":"25 mph","name":"South Sixth Street","sidewalk":"both","surface":"paving_stones"},"geometry":{"coordinates":[[-82.990937,39.949814],[-82.9909618,39.9494575],[-82.990992,39.949023]],"type":"LineString"}},{"type":"Feature","properties":{"@id":"way/21389143","highway":"service","lanes":2,"maxspeed":"25 mph","name":"Alexander Alley","service":"alley","sidewalk":"no","surface":"asphalt"},"geometry":{"coordinates":[[-82.992865,39.948576],[-82.9922515,39.9485569],[-82.9921161,39.9485529],[-82.991402,39.948514],[-82.990776,39.948477],[-82.989934,39.948437],[-82.9893132,39.948421],[-82.9892026,39.9484361],[-82.9890329,39.9484498],[-82.9878771,39.9483766],[-82.9875211,39.9483652],[-82.9866489,39.9483471],[-82.9858039,39.9483195],[-82.98497,39.9482763],[-82.9841389,39.9482315],[-82.9833682,39.9482032],[-82.9833213,39.9482014],[-82.9826527,39.9481634]],"type":"LineString"}},{"type":"Feature","properties":{"@id":"way/21389145","highway":"service","lanes":2,"maxspeed":"25 mph","name":"Alexander Alley","oneway":"no","service":"alley","surface":"asphalt"},"geometry":{"coordinates":[[-82.992815,39.948343],[-82.993526,39.94837]],"type":"LineString"}},{"type":"Feature","properties":{"@id":"way/21389150","alt_name":"East Redbud Alley","highway":"service","lanes":2,"maxspeed":"25 mph","name":"Redbud Alley","sidewalk":"no","surface":"bricks"},"geometry":{"coordinates":[[-82.994661,39.940404],[-82.992539,39.940285],[-82.990584,39.940183],[-82.989859,39.940142]],"type":"LineString"}},{"type":"Feature","properties":{"@id":"way/21389899","highway":"service","lanes":2,"maxspeed":"25 mph","name":"Oscar Alley","service":"alley","sidewalk":"no","surface":"asphalt"},"geometry":{"coordinates":[[-82.9937908,39.9526499],[-82.9937951,39.9525924],[-82.9938249,39.9521785],[-82.9938583,39.9517144],[-82.9938914,39.9512553],[-82.9939256,39.9507813]],"type":"LineString"}},{"type":"Feature","properties":{"@id":"way/21391169","highway":"residential","lanes":2,"maxspeed":"25 mph","name":"South Grant Avenue","sidewalk":"both","surface":"asphalt"},"geometry":{"coordinates":[[-82.989465,39.950536],[-82.989483,39.950369],[-82.9895596,39.9493258],[-82.989586,39.948966]],"type":"LineString"}},{"type":"Feature","properties":{"@id":"way/21391171","highway":"residential","lanes":2,"maxspeed":"25 mph","name":"South Grant Avenue","sidewalk":"no","surface":"asphalt"},"geometry":{"coordinates":[[-82.989299,39.948955],[-82.9892074,39.9484585],[-82.9892026,39.9484361],[-82.989104,39.947952],[-82.988998,39.947466]],"type":"LineString"}},{"type":"Feature","properties":{"@id":"way/21391213","highway":"residential","lanes":2,"lit":"yes","maxspeed":"25 mph","name":"South Lazelle Street","name:etymology":"Henry Martyn Lazelle","name:etymology:wikidata":"Q15440257","sidewalk":"both","surface":"asphalt"},"geometry":{"coordinates":[[-82.9943308,39.9482374],[-82.994181,39.947493],[-82.994021,39.946682],[-82.9938795,39.9459459],[-82.993867,39.945881],[-82.9938545,39.9458171],[-82.993711,39.945081],[-82.9935738,39.9443617],[-82.9935583,39.9442823],[-82.9935421,39.9441999],[-82.993456,39.943772],[-82.9933726,39.9433535],[-82.9933713,39.9433469],[-82.993356,39.94327]],"type":"LineString"}},{"type":"Feature","properties":{"@id":"way/21392674","highway":"residential","lanes":2,"lit":"yes","maxspeed":"25 mph","name":"East Stewart Avenue","sidewalk":"both","surface":"paving_stones"},"geometry":{"coordinates":[[-82.990428,39.941897],[-82.9903548,39.9418916],[-82.9903287,39.9418899],[-82.989708,39.941857],[-82.9881146,39.9417783],[-82.987585,39.9417513],[-82.9861657,39.9416684],[-82.984742,39.9416005],[-82.9837586,39.9415461],[-82.9832947,39.941521],[-82.9831675,39.94149]],"type":"LineString"}},{"type":"Feature","properties":{"@id":"way/21397155","highway":"residential","lanes":2,"lit":"yes","maxspeed":"25 mph","name":"South Fourth Street","sidewalk":"both","surface":"paving_stones"},"geometry":{"coordinates":[[-82.9944163,39.9526754],[-82.9944207,39.9526239],[-82.994454,39.952205],[-82.994492,39.951736],[-82.994529,39.951279],[-82.994566,39.95081]],"type":"LineString"}},{"type":"Feature","properties":{"@id":"way/21397156","highway":"residential","lanes":2,"lit":"yes","maxspeed":"25 mph","name":"South Fourth Street","sidewalk":"separate","surface":"asphalt"},"geometry":{"coordinates":[[-82.9925903,39.9397182],[-82.9925976,39.9396366],[-82.9926083,39.9395132],[-82.9926242,39.9393302],[-82.9926345,39.9392115],[-82.9926411,39.9391346],[-82.992651,39.939021],[-82.9926841,39.9386004],[-82.99269,39.938525],[-82.9926936,39.938477],[-82.9927245,39.938069],[-82.9927546,39.9376709],[-82.992759,39.937612],[-82.9927632,39.9375581],[-82.9927946,39.9371556],[-82.9928251,39.9367652],[-82.99283,39.936703]],"type":"LineString"}},{"type":"Feature","properties":{"@id":"way/21397554","cycleway":"shared_lane","highway":"tertiary","lanes":2,"lit":"yes","maxspeed":"35 mph","name":"East Whittier Street","parking:both":"lane","parking:both:orientation":"parallel","sidewalk":"both","surface":"asphalt","width":"20'","width:carriageway":"20'"},"geometry":{"coordinates":[[-82.990018,39.9445551],[-82.9899336,39.9445497],[-82.9898383,39.9445439],[-82.9898334,39.9445436],[-82.9894729,39.9445243],[-82.9891453,39.9445074],[-82.9886037,39.9444787],[-82.9885717,39.9444771],[-82.987354,39.944411],[-82.9861059,39.9443473],[-82.9857826,39.9443306],[-82.9852722,39.9443043],[-82.9844482,39.9442621],[-82.9836107,39.9442121],[-82.9835012,39.9442062]],"type":"LineString"}},{"type":"Feature","properties":{"@id":"way/21397558","cycleway":"shared_lane","highway":"tertiary","lanes":2,"lit":"yes","maxspeed":"35 mph","name":"East Whittier Street","parking:both":"lane","parking:both:orientation":"parallel","sidewalk":"both","surface":"asphalt","width":"20'","width:carriageway":"20'"},"geometry":{"coordinates":[[-82.996189,39.943981],[-82.9954448,39.9440666],[-82.9953513,39.9440762],[-82.9945628,39.9441661],[-82.9944293,39.9441803],[-82.9942961,39.944196],[-82.9935583,39.9442823],[-82.9926887,39.9443809],[-82.9918507,39.9444766],[-82.9913197,39.9445392],[-82.9908933,39.9445846],[-82.9907857,39.9445935],[-82.990678,39.9445896],[-82.9903997,39.9445733],[-82.9902297,39.944566],[-82.9902211,39.9445655],[-82.9901373,39.9445616],[-82.990018,39.9445551]],"type":"LineString"}},{"type":"Feature","properties":{"@id":"way/21398583","highway":"residential","lane_markings":"no","lanes":2,"lit":"yes","maxspeed":"25 mph","name":"South Pearl Street","parking:lane:left":"parallel","parking:lane:left:parallel":"on_street","parking:lane:right":"no","sidewalk":"both","surface":"paving_stones"},"geometry":{"coordinates":[[-82.997884,39.952684],[-82.9978731,39.9526291],[-82.9978576,39.9525511],[-82.9978533,39.9525292],[-82.997826,39.952391],[-82.9977659,39.9520892],[-82.9977319,39.951918],[-82.9977163,39.9518398],[-82.9977061,39.9517885],[-82.9976981,39.9517482],[-82.997636,39.9514199],[-82.9976171,39.9513204],[-82.9975917,39.9511862],[-82.9975281,39.9508618],[-82.9974844,39.9506388],[-82.997475,39.950591],[-82.9974667,39.9505485],[-82.997361,39.949992],[-82.997261,39.9494795],[-82.997239,39.9493665],[-82.9972084,39.9492096],[-82.9971812,39.9490702],[-82.9971072,39.9486934],[-82.997093,39.948618],[-82.9970793,39.9485461],[-82.9970571,39.9484389],[-82.9970228,39.9482679],[-82.9969726,39.9479893],[-82.9968378,39.9472767],[-82.996821,39.947188],[-82.9968071,39.9471175],[-82.9966711,39.94643],[-82.996662,39.946384],[-82.9966531,39.9463394],[-82.9965181,39.9456601],[-82.996501,39.945576],[-82.9964864,39.9454989],[-82.9964453,39.9452887],[-82.9963883,39.9449971],[-82.9963582,39.9448433],[-82.996345,39.944776],[-82.9963326,39.9447133],[-82.9962702,39.9443887],[-82.9962216,39.9441356],[-82.9962034,39.9440491],[-82.996189,39.943981],[-82.9961691,39.9438896],[-82.9961138,39.9436027]],"type":"LineString"}},{"type":"Feature","properties":{"@id":"way/21399775","highway":"residential","lanes":2,"maxspeed":"25 mph","name":"Jackson Street","sidewalk":"both","surface":"paving_stones"},"geometry":{"coordinates":[[-82.987301,39.951369],[-82.98666,39.951345],[-82.9860518,39.9513174],[-82.98516,39.951277],[-82.98444,39.951245]],"type":"LineString"}},{"type":"Feature","properties":{"@id":"way/21399790","highway":"residential","lanes":2,"lit":"yes","maxspeed":"25 mph","name":"Jackson Street","sidewalk":"both","surface":"paving_stones"},"geometry":{"coordinates":[[-82.995021,39.95176],[-82.9949593,39.9517576],[-82.994839,39.951753],[-82.994581,39.9517404],[-82.994492,39.951736],[-82.9944055,39.9517333],[-82.9941376,39.9517229],[-82.9938583,39.9517144],[-82.9935873,39.9517067],[-82.993497,39.9517041],[-82.9934023,39.9517],[-82.9931563,39.9516819],[-82.9928523,39.951665],[-82.9926003,39.951649],[-82.992513,39.951644],[-82.9924312,39.9516391],[-82.9921524,39.9516241],[-82.99153,39.951595],[-82.990893,39.951564],[-82.990449,39.951542],[-82.9902703,39.9515342],[-82.989049,39.951481],[-82.988077,39.951434],[-82.987299,39.951397]],"type":"LineString"}},{"type":"Feature","properties":{"@id":"way/21401351","highway":"residential","lane_markings":"yes","lanes":2,"lit":"yes","maxspeed":"25 mph","name":"Reinhard Avenue","sidewalk":"separate","surface":"asphalt","width":"36'","width:carriageway":"36'"},"geometry":{"coordinates":[[-82.995155,39.94306],[-82.99423,39.943169],[-82.993356,39.94327],[-82.992482,39.943377],[-82.9916599,39.9434701],[-82.9905912,39.943591],[-82.9904413,39.9436109],[-82.990338,39.9436226],[-82.990246,39.943633]],"type":"LineString"}},{"type":"Feature","properties":{"@id":"way/21402058","highway":"residential","lanes":2,"lit":"yes","maxspeed":"25 mph","name":"East Beck Street","sidewalk":"both","surface":"paving_stones"},"geometry":{"coordinates":[[-82.992589,39.950719],[-82.992561,39.950717]],"type":"LineString"}},{"type":"Feature","properties":{"@id":"way/21402059","highway":"residential","lane_markings":"no","lanes":2,"maxspeed":"25 mph","name":"East Beck Street","sidewalk":"both","surface":"paving_stones"},"geometry":{"coordinates":[[-82.990958,39.950619],[-82.990916,39.950616]],"type":"LineString"}},{"type":"Feature","properties":{"@id":"way/21402060","highway":"residential","lanes":2,"maxspeed":"25 mph","name":"East Beck Street","sidewalk":"both","surface":"paving_stones"},"geometry":{"coordinates":[[-82.9891305,39.9505214],[-82.989465,39.950536]],"type":"LineString"}},{"type":"Feature","properties":{"@id":"way/21403026","highway":"service","lanes":2,"lit":"no","maxspeed":"25 mph","name":"Purdy Alley","service":"alley","sidewalk":"no","surface":"asphalt"},"geometry":{"coordinates":[[-82.99107,39.946028],[-82.9910025,39.9456854],[-82.990943,39.945383],[-82.9908682,39.945012],[-82.9907978,39.9446632],[-82.9907857,39.9445935],[-82.9907698,39.9445188],[-82.9906907,39.9440889],[-82.9906062,39.9436662],[-82.9905912,39.943591]],"type":"LineString"}},{"type":"Feature","properties":{"@id":"way/21403029","highway":"service","lanes":2,"maxspeed":"25 mph","name":"Purdy Alley","service":"alley","sidewalk":"no","surface":"asphalt"},"geometry":{"coordinates":[[-82.9915017,39.94905],[-82.991402,39.948514],[-82.991199,39.947573]],"type":"LineString"}},{"type":"Feature","properties":{"@id":"way/21403829","highway":"residential","lanes":2,"lit":"yes","maxspeed":"25 mph","name":"East Frankfort Street","name:etymology":"Frankfurt","name:etymology:wikidata":"Q1794","sidewalk":"both","surface":"paving_stones"},"geometry":{"coordinates":[[-82.997709,39.947086],[-82.9975664,39.9471024],[-82.9975278,39.9471068],[-82.9971219,39.9471534],[-82.996821,39.947188],[-82.995978,39.947287],[-82.9952277,39.9473739],[-82.995054,39.947394],[-82.9948713,39.9474147],[-82.994181,39.947493],[-82.9933575,39.9475929]],"type":"LineString"}},{"type":"Feature","properties":{"@id":"way/21403831","highway":"residential","lanes":2,"lit":"yes","maxspeed":"25 mph","name":"East Frankfort Street","name:etymology":"Frankfurt","name:etymology:wikidata":"Q1794","sidewalk":"no","surface":"asphalt"},"geometry":{"coordinates":[[-82.9897716,39.947503],[-82.9892063,39.9474757],[-82.988998,39.947466],[-82.9888771,39.9474607],[-82.988518,39.947445],[-82.988342,39.947438],[-82.9877624,39.9474117],[-82.987694,39.9474086],[-82.9871096,39.9473822],[-82.9867274,39.9473651],[-82.9864688,39.9473537],[-82.9858894,39.9473222],[-82.9850412,39.9472821],[-82.9842124,39.9472409],[-82.9833811,39.9472046],[-82.982861,39.9471842],[-82.9827337,39.9471793]],"type":"LineString"}},{"type":"Feature","properties":{"@id":"way/21403834","highway":"residential","lanes":2,"lit":"yes","maxspeed":"25 mph","name":"East Frankfort Street","name:etymology":"Frankfurt","name:etymology:wikidata":"Q1794","sidewalk":"both","surface":"paving_stones"},"geometry":{"coordinates":[[-82.991918,39.947609],[-82.9918467,39.947604],[-82.991641,39.947591],[-82.991373,39.947581]],"type":"LineString"}},{"type":"Feature","properties":{"@id":"way/21403835","highway":"residential","lanes":2,"lit":"yes","maxspeed":"25 mph","name":"East Frankfort Street","name:etymology":"Frankfurt","name:etymology:wikidata":"Q1794","sidewalk":"both","surface":"paving_stones"},"geometry":{"coordinates":[[-82.993385,39.9476842],[-82.992674,39.947644]],"type":"LineString"}},{"type":"Feature","properties":{"@id":"way/21403837","highway":"residential","lanes":2,"lit":"yes","maxspeed":"25 mph","name":"East Frankfort Street","name:etymology":"Frankfurt","name:etymology:wikidata":"Q1794","sidewalk":"both","surface":"paving_stones"},"geometry":{"coordinates":[[-82.991199,39.947573],[-82.99082,39.947555],[-82.9906655,39.9475489],[-82.9905906,39.9475464]],"type":"LineString"}},{"type":"Feature","properties":{"@id":"way/21406015","highway":"residential","lanes":2,"maxspeed":"25 mph","name":"East Willow Street","sidewalk":"left","surface":"paving_stones"},"geometry":{"coordinates":[[-82.994755,39.95032],[-82.994409,39.950301],[-82.9942505,39.9502912]],"type":"LineString"}},{"type":"Feature","properties":{"@id":"way/21412041","highway":"service","lanes":2,"maxspeed":"25 mph","name":"Margraff Alley","service":"alley","sidewalk":"no","surface":"asphalt"},"geometry":{"coordinates":[[-82.994763,39.9526909],[-82.994803,39.9522232],[-82.994839,39.951753]],"type":"LineString"}},{"type":"Feature","properties":{"@id":"way/21412915","highway":"service","lanes":2,"maxspeed":"25 mph","name":"Lathrop Street","service":"alley","sidewalk":"both","surface":"asphalt"},"geometry":{"coordinates":[[-82.987299,39.951397],[-82.987301,39.951369]],"type":"LineString"}},{"type":"Feature","properties":{"@id":"way/21414441","highway":"residential","lanes":2,"maxspeed":"25 mph","name":"Brust Street","sidewalk":"both","surface":"paving_stones"},"geometry":{"coordinates":[[-82.988796,39.950502],[-82.9888342,39.9499751],[-82.9888773,39.9493792],[-82.9888831,39.9493],[-82.988909,39.948942]],"type":"LineString"}},{"type":"Feature","properties":{"@id":"way/21415958","highway":"residential","lanes":2,"lit":"yes","maxspeed":"25 mph","name":"East Deshler Avenue","sidewalk":"separate","surface":"asphalt"},"geometry":{"coordinates":[[-82.994775,39.940981],[-82.9946483,39.9409741],[-82.9925575,39.9408608],[-82.992487,39.940857],[-82.9912349,39.9407903],[-82.9907103,39.9407623]],"type":"LineString"}},{"type":"Feature","properties":{"@id":"way/21415963","highway":"residential","lanes":2,"lit":"yes","maxspeed":"25 mph","name":"East Deshler Avenue","sidewalk":"both","surface":"asphalt"},"geometry":{"coordinates":[[-82.996534,39.9410512],[-82.9963754,39.9410679],[-82.9960428,39.9410487],[-82.995613,39.941026],[-82.9948803,39.9409867],[-82.994775,39.940981]],"type":"LineString"}},{"type":"Feature","properties":{"@id":"way/21416171","highway":"residential","lanes":2,"lit":"yes","maxspeed":"25 mph","name":"East Blenkner Street","sidewalk":"both","surface":"paving_stones"},"geometry":{"coordinates":[[-82.995084,39.952088],[-82.9951598,39.9520794],[-82.995836,39.9520028],[-82.9959487,39.9519902]],"type":"LineString"}},{"type":"Feature","properties":{"@id":"way/21416271","highway":"residential","lanes":2,"lit":"yes","maxspeed":"25 mph","name":"Lansing Street","sidewalk":"both","surface":"paving_stones"},"geometry":{"coordinates":[[-82.997239,39.944672],[-82.9970902,39.9446893],[-82.9970738,39.9446912],[-82.996345,39.944776],[-82.995503,39.944873],[-82.9947299,39.9449606],[-82.994585,39.944977],[-82.994423,39.9449963],[-82.993711,39.945081],[-82.992842,39.945179],[-82.992009,39.94527],[-82.991472,39.945333],[-82.991029,39.945383],[-82.990943,39.945383],[-82.990868,39.945373],[-82.990405,39.945349],[-82.989951,39.945327]],"type":"LineString"}},{"type":"Feature","properties":{"@id":"way/21416851","highway":"residential","lanes":1,"lit":"no","maxspeed":"25 mph","name":"West Blenkner Street","oneway":"yes","sidewalk":"both","surface":"asphalt"},"geometry":{"coordinates":[[-82.998604,39.951686],[-82.9987121,39.9516741],[-82.9990813,39.9516313],[-82.9992625,39.9516105],[-82.9995058,39.9515822]],"type":"LineString"}},{"type":"Feature","properties":{"@id":"way/21421516","highway":"service","lanes":2,"maxspeed":"25 mph","name":"Cedar Alley","sidewalk":"no","surface":"asphalt"},"geometry":{"coordinates":[[-82.991491,39.952062],[-82.99153,39.951595],[-82.991559,39.9511256],[-82.991589,39.950649]],"type":"LineString"}},{"type":"Feature","properties":{"@id":"way/21422754","highway":"residential","lanes":2,"lit":"yes","maxspeed":"25 mph","name":"Ebner Street","sidewalk":"both","surface":"asphalt"},"geometry":{"coordinates":[[-82.9884338,39.9479219],[-82.988351,39.947502],[-82.988342,39.947438],[-82.988368,39.946855],[-82.988447,39.945906],[-82.9884824,39.9455006],[-82.9885341,39.9449077],[-82.9885666,39.9445429],[-82.9885717,39.9444771]],"type":"LineString"}},{"type":"Feature","properties":{"@id":"way/29314570","NHS":"yes","destination:lanes":"US 33;Livingston Avenue|Third Street","hgv":"designated","hgv:national_network":"yes","highway":"primary","lanes":2,"lit":"yes","maxspeed":"25 mph","name":"South Third Street","old_ref:fap":11,"oneway":"yes","ref":"US 33","sidewalk":"right","source:hgv:national_network":"Title 23: Highways Part 658 http://ecfr.gpoaccess.gov/cgi/t/text/text-idx?c=ecfr&rgn=div5&view=text&node=23:1.0.1.7.33&idno=23","source:old_ref:fap":"ODOT http://www.dot.state.oh.us/Divisions/Planning/TechServ/prod_services/Pages/RI06.aspx http://www.dot.state.oh.us/Divisions/ContractAdmin/Contracts/Pages/NHS-FAP.aspx","surface":"asphalt","turn:lanes":"left|through","width":"24'","width:carriageway":"24'"},"geometry":{"coordinates":[[-82.9961734,39.953145],[-82.9961666,39.9531067],[-82.9961067,39.9527876]],"type":"LineString"}},{"type":"Feature","properties":{"@id":"way/29314672","cycleway":"lane","highway":"tertiary","lanes":5,"lanes:backward":2,"lanes:forward":3,"lit":"yes","maxspeed":"35 mph","name":"South Grant Avenue","sidewalk":"both","surface":"asphalt","turn:lanes:backward":"left|left|through;right","width":"54'","width:carriageway":"54'"},"geometry":{"coordinates":[[-82.9891561,39.9533605],[-82.989053,39.9528322],[-82.9890129,39.9526297],[-82.989,39.9525606],[-82.9889857,39.9524823]],"type":"LineString"}},{"type":"Feature","properties":{"@id":"way/29343307","highway":"residential","lanes":2,"lit":"yes","maxspeed":"25 mph","name":"South Grant Avenue","sidewalk":"both","surface":"paving_stones"},"geometry":{"coordinates":[[-82.9889857,39.9524823],[-82.9889838,39.9523853],[-82.9889845,39.9523758],[-82.9889974,39.952195],[-82.9890001,39.952158],[-82.989015,39.95195],[-82.989049,39.951481],[-82.989085,39.951017],[-82.989106,39.950751],[-82.9891305,39.9505214]],"type":"LineString"}},{"type":"Feature","properties":{"@id":"way/32802768","hgv":"designated","hgv:national_network":"yes","highway":"primary","lanes":2,"lit":"yes","maxspeed":"35 mph","name":"East Livingston Avenue","name:etymology":"Alexander W. Livingston","name:etymology:wikidata":"Q2833223","old_ref:fap":11,"oneway":"yes","ref":"US 33","sidewalk":"right","source:hgv:national_network":"Title 23: Highways Part 658 http://ecfr.gpoaccess.gov/cgi/t/text/text-idx?c=ecfr&rgn=div5&view=text&node=23:1.0.1.7.33&idno=23","source:old_ref:fap":"ODOT http://www.dot.state.oh.us/Divisions/Planning/TechServ/prod_services/Pages/RI06.aspx http://www.dot.state.oh.us/Divisions/ContractAdmin/Contracts/Pages/NHS-FAP.aspx","surface":"asphalt","width":"22'","width:carriageway":"22'"},"geometry":{"coordinates":[[-82.9944496,39.9526771],[-82.9944163,39.9526754],[-82.994335,39.952673],[-82.9937908,39.9526499]],"type":"LineString"}},{"type":"Feature","properties":{"@id":"way/36370128","cycleway":"shared_lane","highway":"residential","lane_markings":"yes","lanes":2,"lit":"yes","maxspeed":"25 mph","name":"Jaeger Street","sidewalk":"separate","surface":"asphalt","width":"36'","width:carriageway":"36'"},"geometry":{"coordinates":[[-82.9906327,39.9396113],[-82.9906366,39.9395457],[-82.990689,39.938919],[-82.9907213,39.9385175],[-82.990726,39.938444],[-82.9907301,39.9383915],[-82.9907606,39.9379993],[-82.9907918,39.9375986],[-82.990797,39.937532],[-82.9908017,39.9374758],[-82.9908351,39.9370733],[-82.9908665,39.9366953],[-82.990873,39.936617]],"type":"LineString"}},{"type":"Feature","properties":{"@id":"way/36370129","highway":"residential","lanes":2,"maxspeed":"25 mph","name":"City Park Avenue","sidewalk":"separate","surface":"sett"},"geometry":{"coordinates":[[-82.995155,39.94306],[-82.9949968,39.942231],[-82.9949822,39.9421575],[-82.9949711,39.9420945],[-82.9949054,39.9417727],[-82.994837,39.941437],[-82.9947879,39.9410757],[-82.994775,39.940981]],"type":"LineString"}},{"type":"Feature","properties":{"@id":"way/36370130","highway":"residential","lanes":2,"lit":"yes","maxspeed":"25 mph","name":"East Deshler Avenue","sidewalk":"both","surface":"asphalt"},"geometry":{"coordinates":[[-82.990536,39.940753],[-82.9904387,39.9407485],[-82.9903851,39.940746],[-82.989807,39.940716],[-82.9887771,39.9406606],[-82.9879217,39.9406121]],"type":"LineString"}},{"type":"Feature","properties":{"@id":"way/36370131","highway":"residential","lanes":2,"lit":"yes","maxspeed":"25 mph","name":"Reinhard Avenue","sidewalk":"both","surface":"asphalt"},"geometry":{"coordinates":[[-82.990246,39.943633],[-82.990093,39.9436569],[-82.98999,39.943673],[-82.989832,39.943681],[-82.9895505,39.9436643],[-82.988678,39.943619],[-82.9874304,39.9435551],[-82.9858468,39.9434708],[-82.9845073,39.9434029],[-82.9836789,39.9433575],[-82.9831404,39.9433297],[-82.98303,39.943324]],"type":"LineString"}},{"type":"Feature","properties":{"@id":"way/42973951","highway":"service","lanes":2,"maxspeed":"25 mph","name":"East Willow Street","sidewalk":"no","surface":"asphalt"},"geometry":{"coordinates":[[-82.9936137,39.9502633],[-82.9935351,39.9502585],[-82.9929915,39.9502255]],"type":"LineString"}},{"type":"Feature","properties":{"@id":"way/70515598","highway":"tertiary","lanes":2,"lit":"yes","maxspeed":"25 mph","name":"Thurman Avenue","sidewalk":"separate","surface":"asphalt","width":"36'","width:carriageway":"36'"},"geometry":{"coordinates":[[-82.9906327,39.9396113],[-82.9905278,39.9396063],[-82.9899087,39.9395743],[-82.9888781,39.9395207],[-82.9878675,39.9394676],[-82.987783,39.9394622],[-82.9876806,39.9394573],[-82.9870476,39.9394244],[-82.986357,39.9393885],[-82.9862841,39.9393846],[-82.9850361,39.9393193],[-82.9849381,39.9393152],[-82.9839238,39.9392582]],"type":"LineString"}},{"type":"Feature","properties":{"@id":"way/79602244","hgv":"no","highway":"residential","lane_markings":"yes","lanes":2,"lit":"yes","maxspeed":"30 mph","name":"South Third Street","sidewalk":"both","surface":"asphalt"},"geometry":{"coordinates":[[-82.9944293,39.9441803],[-82.9944149,39.9441054],[-82.994329,39.94367],[-82.9942472,39.9432561],[-82.9942451,39.9432456],[-82.99423,39.943169]],"type":"LineString"}},{"type":"Feature","properties":{"@id":"way/121341661","NHS":"yes","hgv":"designated","hgv:national_network":"yes","highway":"primary","lanes":3,"lit":"yes","maxspeed":"35 mph","name":"East Livingston Avenue","name:etymology":"Alexander W. Livingston","name:etymology:wikidata":"Q2833223","old_ref:fap":22,"oneway":"yes","ref":"US 23","sidewalk":"right","source:hgv:national_network":"Title 23: Highways Part 658 http://ecfr.gpoaccess.gov/cgi/t/text/text-idx?c=ecfr&rgn=div5&view=text&node=23:1.0.1.7.33&idno=23","source:old_ref:fap":"ODOT http://www.dot.state.oh.us/Divisions/Planning/TechServ/prod_services/Pages/RI06.aspx http://www.dot.state.oh.us/Divisions/ContractAdmin/Contracts/Pages/NHS-FAP.aspx","surface":"asphalt","turn:lanes":"through|through|right","width":"36'","width:carriageway":"36'"},"geometry":{"coordinates":[[-82.996687,39.952803],[-82.99623,39.9527921],[-82.9961067,39.9527876]],"type":"LineString"}},{"type":"Feature","properties":{"@id":"way/204081886","hgv":"no","highway":"tertiary","lanes":2,"lit":"yes","maxspeed":"30 mph","name":"South Third Street","parking:both":"lane","parking:both:orientation":"parallel","sidewalk":"both","surface":"asphalt","width":"30'","width:carriageway":"30'"},"geometry":{"coordinates":[[-82.9960743,39.9526122],[-82.9959487,39.9519902],[-82.9958273,39.951395],[-82.9957881,39.9511898],[-82.9957809,39.9511525],[-82.995711,39.950784],[-82.995596,39.950188],[-82.9954222,39.949306],[-82.995406,39.949224],[-82.995326,39.948827],[-82.9953012,39.9487012],[-82.9952626,39.948505],[-82.995222,39.948299],[-82.9952,39.948195],[-82.995069,39.9474762],[-82.995054,39.947394],[-82.994894,39.946584],[-82.994738,39.94578],[-82.994585,39.944977],[-82.9944445,39.9442563],[-82.9944293,39.9441803]],"type":"LineString"}},{"type":"Feature","properties":{"@id":"way/204081887","NHS":"yes","hgv":"designated","hgv:national_network":"yes","highway":"primary","lanes":2,"lit":"yes","maxspeed":"35 mph","name":"East Livingston Avenue","name:etymology":"Alexander W. Livingston","name:etymology:wikidata":"Q2833223","old_ref:fap":22,"oneway":"yes","placement":"middle_of:2","ref":"US 23;US 33","sidewalk":"no","source:hgv:national_network":"Title 23: Highways Part 658 http://ecfr.gpoaccess.gov/cgi/t/text/text-idx?c=ecfr&rgn=div5&view=text&node=23:1.0.1.7.33&idno=23","source:old_ref:fap":"ODOT http://www.dot.state.oh.us/Divisions/Planning/TechServ/prod_services/Pages/RI06.aspx http://www.dot.state.oh.us/Divisions/ContractAdmin/Contracts/Pages/NHS-FAP.aspx","surface":"asphalt","width":"24'","width:carriageway":"24'"},"geometry":{"coordinates":[[-82.9961067,39.9527876],[-82.995204,39.952751],[-82.9951014,39.9527471]],"type":"LineString"}},{"type":"Feature","properties":{"@id":"way/298593750","highway":"service","lanes":2,"maxspeed":"15 mph","name":"Concord Place","service":"alley","sidewalk":"no","surface":"asphalt"},"geometry":{"coordinates":[[-82.9901917,39.9441261],[-82.9900847,39.9441204],[-82.9898721,39.9441098],[-82.9895095,39.9440896],[-82.9886445,39.9440434],[-82.9873907,39.9439758],[-82.9858154,39.9438932],[-82.9844762,39.943821],[-82.9836455,39.9437762],[-82.9831187,39.9437472],[-82.9829977,39.9437405]],"type":"LineString"}},{"type":"Feature","properties":{"@id":"way/350684373","highway":"service","service":"alley"},"geometry":{"coordinates":[[-82.9899836,39.9449492],[-82.9908682,39.945012]],"type":"LineString"}},{"type":"Feature","properties":{"@id":"way/351915836","highway":"residential","lanes":2,"maxspeed":"25 mph","name":"South Grant Avenue","sidewalk":"no","surface":"asphalt"},"geometry":{"coordinates":[[-82.9888771,39.9474607],[-82.9889286,39.9468814]],"type":"LineString"}},{"type":"Feature","properties":{"@id":"way/351915839","access":"private","highway":"residential","lanes":2,"lit":"yes","maxspeed":"25 mph","name":"South Grant Avenue","sidewalk":"no","surface":"asphalt"},"geometry":{"coordinates":[[-82.9891453,39.9445074],[-82.9891342,39.9446735],[-82.9891175,39.9449117],[-82.9891135,39.9449671],[-82.9891018,39.9450716],[-82.9890357,39.9458355],[-82.9890263,39.9459329]],"type":"LineString"}},{"type":"Feature","properties":{"@id":"way/351915842","highway":"residential","lanes":2,"maxspeed":"25 mph","name":"South Grant Avenue","sidewalk":"no","surface":"asphalt"},"geometry":{"coordinates":[[-82.9889286,39.9468814],[-82.9889822,39.9463615],[-82.9890263,39.9459329]],"type":"LineString"}},{"type":"Feature","properties":{"@id":"way/351915844","highway":"service","lanes":2,"maxspeed":"25 mph","name":"Timbecker Lane","service":"alley","sidewalk":"no","surface":"asphalt"},"geometry":{"coordinates":[[-82.9906804,39.9464477],[-82.9904669,39.9464353],[-82.9900912,39.9464135],[-82.9898599,39.9464001],[-82.9892956,39.9463753],[-82.9889822,39.9463615]],"type":"LineString"}},{"type":"Feature","properties":{"@id":"way/351915850","highway":"service","service":"alley"},"geometry":{"coordinates":[[-82.9892534,39.9468966],[-82.9892956,39.9463753]],"type":"LineString"}},{"type":"Feature","properties":{"@id":"way/357518080","highway":"service","lanes":2,"maxspeed":"15 mph","name":"East Blenkner Street","sidewalk":"no","surface":"asphalt"},"geometry":{"coordinates":[[-82.9872617,39.9518665],[-82.9866314,39.9518385]],"type":"LineString"}},{"type":"Feature","properties":{"@id":"way/398624737","highway":"residential","lanes":2,"maxspeed":"25 mph","name":"East Blenkner Street","sidewalk":"no","surface":"asphalt"},"geometry":{"coordinates":[[-82.9951121,39.9522359],[-82.9950586,39.9522337],[-82.994803,39.9522232],[-82.9945434,39.9522095],[-82.994454,39.952205],[-82.994361,39.9522007],[-82.9941009,39.9521888],[-82.9938249,39.9521785],[-82.9935509,39.9521642],[-82.9934617,39.9521596],[-82.9933762,39.9521546],[-82.993121,39.9521396],[-82.9928195,39.9521263],[-82.9925583,39.9521156],[-82.9924753,39.9521106],[-82.9923829,39.9521077],[-82.9921148,39.9520864],[-82.9919803,39.9520811],[-82.9915773,39.9520654],[-82.991491,39.952062],[-82.990857,39.952037],[-82.990831,39.952033],[-82.990452,39.952016],[-82.9902319,39.9520057],[-82.989641,39.951978],[-82.9895469,39.9519738],[-82.989015,39.95195]],"type":"LineString"}},{"type":"Feature","properties":{"@id":"way/554919763","highway":"service","surface":"asphalt"},"geometry":{"coordinates":[[-82.9969873,39.952485],[-82.9966947,39.9525234],[-82.996655,39.9525325],[-82.9966184,39.952547],[-82.9965899,39.9525715],[-82.9965693,39.952596],[-82.9965584,39.9526464],[-82.9965609,39.9526866]],"type":"LineString"}},{"type":"Feature","properties":{"@id":"way/554919765","highway":"service","surface":"asphalt"},"geometry":{"coordinates":[[-82.9915773,39.9520654],[-82.9915725,39.9521897],[-82.9911571,39.9521723],[-82.9908481,39.9521601]],"type":"LineString"}},{"type":"Feature","properties":{"@id":"way/554919766","highway":"service","surface":"asphalt"},"geometry":{"coordinates":[[-82.9911571,39.9521723],[-82.9911364,39.9524881],[-82.9911303,39.9525695]],"type":"LineString"}},{"type":"Feature","properties":{"@id":"way/555283048","access":"private","highway":"service","service":"parking_aisle"},"geometry":{"coordinates":[[-82.9957809,39.9511525],[-82.994929,39.9512527]],"type":"LineString"}},{"type":"Feature","properties":{"@id":"way/555283051","highway":"service","service":"parking_aisle"},"geometry":{"coordinates":[[-82.9955227,39.9514292],[-82.995499,39.9513099]],"type":"LineString"}},{"type":"Feature","properties":{"@id":"way/555283053","highway":"service","service":"parking_aisle"},"geometry":{"coordinates":[[-82.9953132,39.9514527],[-82.9952743,39.9512624]],"type":"LineString"}},{"type":"Feature","properties":{"@id":"way/555283054","highway":"service","oneway":"yes","service":"driveway","surface":"asphalt"},"geometry":{"coordinates":[[-82.9957881,39.9511898],[-82.9961482,39.9511511],[-82.9962066,39.9511591],[-82.9962521,39.951186],[-82.9962836,39.9512271],[-82.9963311,39.9513371]],"type":"LineString"}},{"type":"Feature","properties":{"@id":"way/555283056","highway":"residential","lanes":1,"lit":"yes","maxspeed":"25 mph","name":"East Beck Street","oneway":"yes","sidewalk":"both","surface":"paving_stones"},"geometry":{"coordinates":[[-82.995711,39.950784],[-82.9959732,39.9507554],[-82.9961918,39.9507315],[-82.9964043,39.9507083],[-82.996636,39.950683],[-82.997475,39.950591],[-82.9981946,39.9505064],[-82.9982664,39.9504981],[-82.998368,39.950486]],"type":"LineString"}},{"type":"Feature","properties":{"@id":"way/555283062","highway":"residential","lanes":1,"lit":"yes","maxspeed":"25 mph","name":"East Blenkner Street","oneway":"yes","sidewalk":"both","surface":"paving_stones"},"geometry":{"coordinates":[[-82.9959487,39.9519902],[-82.9966134,39.9519136],[-82.9968682,39.9518842],[-82.9973407,39.9518302],[-82.9975357,39.951808],[-82.9977061,39.9517885],[-82.9978653,39.9517703],[-82.9980702,39.9517469],[-82.9984368,39.9517051],[-82.9984975,39.9516986],[-82.998604,39.951686]],"type":"LineString"}},{"type":"Feature","properties":{"@id":"way/555283068","highway":"residential","lanes":2,"lit":"yes","maxspeed":"25 mph","name":"East Willow Street","sidewalk":"both","surface":"paving_stones"},"geometry":{"coordinates":[[-82.995596,39.950188],[-82.9954738,39.950202],[-82.9948318,39.9502754],[-82.994748,39.950285]],"type":"LineString"}},{"type":"Feature","properties":{"@id":"way/555283073","highway":"residential","lanes":1,"lit":"yes","maxspeed":"25 mph","name":"East Sycamore Street","name:etymology:wikidata":"Q156944","oneway":"yes","sidewalk":"both","surface":"paving_stones"},"geometry":{"coordinates":[[-82.9948551,39.9492021],[-82.9945423,39.9491926],[-82.9943377,39.9491851],[-82.9937862,39.9491623],[-82.993682,39.949158]],"type":"LineString"}},{"type":"Feature","properties":{"@id":"way/555283081","highway":"service","service":"parking_aisle"},"geometry":{"coordinates":[[-82.9946085,39.949544],[-82.9949154,39.9495124],[-82.9948778,39.9493348],[-82.9945754,39.9493683]],"type":"LineString"}},{"type":"Feature","properties":{"@id":"way/556013567","highway":"service","service":"alley"},"geometry":{"coordinates":[[-82.9859766,39.9492505],[-82.9867837,39.949295],[-82.9874594,39.9493142],[-82.9882248,39.949345],[-82.9888773,39.9493792]],"type":"LineString"}},{"type":"Feature","properties":{"@id":"way/556041541","highway":"service","oneway":"yes","service":"parking_aisle","surface":"asphalt"},"geometry":{"coordinates":[[-82.9980735,39.9489628],[-82.9979293,39.9489802],[-82.9978142,39.948994],[-82.9971812,39.9490702]],"type":"LineString"}},{"type":"Feature","properties":{"@id":"way/556041549","cycleway":"shared_lane","highway":"tertiary","lanes":3,"lanes:backward":2,"lanes:forward":1,"lit":"yes","maxspeed":"30 mph","name":"East Whittier Street","placement:forward":"left_of:1","sidewalk":"both","surface":"asphalt","turn:lanes:backward":"left|through;right","width":"36'","width:carriageway":"36'"},"geometry":{"coordinates":[[-82.9971037,39.9439702],[-82.9969549,39.9438891],[-82.9969421,39.9438903],[-82.9966571,39.9439223],[-82.996189,39.943981]],"type":"LineString"}},{"type":"Feature","properties":{"@id":"way/556041551","highway":"service","service":"parking_aisle"},"geometry":{"coordinates":[[-82.9962216,39.9441356],[-82.9966772,39.9440863]],"type":"LineString"}},{"type":"Feature","properties":{"@id":"way/556822317","highway":"service","service":"alley"},"geometry":{"coordinates":[[-82.9900131,39.9475156],[-82.9900525,39.9469336],[-82.9900912,39.9464135],[-82.990129,39.9459844]],"type":"LineString"}},{"type":"Feature","properties":{"@id":"way/557772909","hgv":"designated","hgv:national_network":"yes","highway":"primary","lanes":4,"lit":"yes","maxspeed":"35 mph","name":"East Livingston Avenue","name:etymology":"Alexander W. Livingston","name:etymology:wikidata":"Q2833223","old_ref:fap":11,"oneway":"no","ref":"US 33","sidewalk":"separate","source:hgv:national_network":"Title 23: Highways Part 658 http://ecfr.gpoaccess.gov/cgi/t/text/text-idx?c=ecfr&rgn=div5&view=text&node=23:1.0.1.7.33&idno=23","source:old_ref:fap":"ODOT http://www.dot.state.oh.us/Divisions/Planning/TechServ/prod_services/Pages/RI06.aspx http://www.dot.state.oh.us/Divisions/ContractAdmin/Contracts/Pages/NHS-FAP.aspx","surface":"asphalt","turn:lanes:backward":"right|right","width":"42'","width:carriageway":"42'"},"geometry":{"coordinates":[[-82.9935296,39.9526604],[-82.993422,39.952657]],"type":"LineString"}},{"type":"Feature","properties":{"@id":"way/557772921","highway":"service","lanes":2,"maxspeed":"25 mph","name":"Purdy Alley","service":"alley","sidewalk":"no","surface":"asphalt"},"geometry":{"coordinates":[[-82.991373,39.947581],[-82.991253,39.946991],[-82.9911587,39.9464957],[-82.9911574,39.946489],[-82.9911133,39.9462575],[-82.9911183,39.9462105],[-82.9911527,39.9461623]],"type":"LineString"}},{"type":"Feature","properties":{"@id":"way/558321039","highway":"service"},"geometry":{"coordinates":[[-82.995742,39.9416702],[-82.9949961,39.9417616],[-82.9949054,39.9417727]],"type":"LineString"}},{"type":"Feature","properties":{"@id":"way/558321065","highway":"service","oneway":"yes","service":"parking_aisle","surface":"asphalt"},"geometry":{"coordinates":[[-82.9955502,39.9407019],[-82.9961421,39.9406418],[-82.9961488,39.9406798],[-82.9962158,39.9406952]],"type":"LineString"}},{"type":"Feature","properties":{"@id":"way/558321066","highway":"service","surface":"asphalt"},"geometry":{"coordinates":[[-82.9955318,39.9406073],[-82.9958241,39.9405666],[-82.9964297,39.9405028]],"type":"LineString"}},{"type":"Feature","properties":{"@id":"way/558321067","highway":"service","service":"parking_aisle","surface":"asphalt"},"geometry":{"coordinates":[[-82.9954865,39.9403735],[-82.9957827,39.9403395],[-82.9958241,39.9405666]],"type":"LineString"}},{"type":"Feature","properties":{"@id":"way/558321068","highway":"service","service":"parking_aisle","surface":"asphalt"},"geometry":{"coordinates":[[-82.9956901,39.9400156],[-82.9954232,39.9400465]],"type":"LineString"}},{"type":"Feature","properties":{"@id":"way/558321069","highway":"service","surface":"asphalt"},"geometry":{"coordinates":[[-82.9963455,39.940076],[-82.9954494,39.9401819]],"type":"LineString"}},{"type":"Feature","properties":{"@id":"way/558321142","highway":"service","surface":"asphalt"},"geometry":{"coordinates":[[-82.9961057,39.9431919],[-82.9960362,39.9432007]],"type":"LineString"}},{"type":"Feature","properties":{"@id":"way/558321149","highway":"service","surface":"asphalt"},"geometry":{"coordinates":[[-82.9959606,39.9428087],[-82.9962046,39.9427929],[-82.9966688,39.9427629],[-82.9966906,39.9427628],[-82.9967281,39.9427599],[-82.996867,39.942744]],"type":"LineString"}},{"type":"Feature","properties":{"@id":"way/560110625","highway":"service","surface":"asphalt"},"geometry":{"coordinates":[[-82.9956997,39.9414576],[-82.9960951,39.9414129]],"type":"LineString"}},{"type":"Feature","properties":{"@id":"way/560453331","highway":"service","surface":"asphalt"},"geometry":{"coordinates":[[-82.9896832,39.9421031],[-82.9903359,39.9421416],[-82.9904051,39.9421456]],"type":"LineString"}},{"type":"Feature","properties":{"@id":"way/560461932","highway":"service","surface":"asphalt"},"geometry":{"coordinates":[[-82.9893936,39.9521725],[-82.9890001,39.952158]],"type":"LineString"}},{"type":"Feature","properties":{"@id":"way/560461934","highway":"service","surface":"asphalt"},"geometry":{"coordinates":[[-82.9895469,39.9519738],[-82.9895371,39.9520676],[-82.9893936,39.9521725],[-82.9893718,39.9524031],[-82.9893686,39.9524961]],"type":"LineString"}},{"type":"Feature","properties":{"@id":"way/560461945","highway":"service"},"geometry":{"coordinates":[[-82.9924596,39.9523104],[-82.9927383,39.9523267]],"type":"LineString"}},{"type":"Feature","properties":{"@id":"way/560461946","highway":"service"},"geometry":{"coordinates":[[-82.9919803,39.9520811],[-82.9919618,39.9522835]],"type":"LineString"}},{"type":"Feature","properties":{"@id":"way/560979665","highway":"service","surface":"asphalt"},"geometry":{"coordinates":[[-82.987253,39.9519837],[-82.9867359,39.9519572],[-82.9866231,39.9519515]],"type":"LineString"}},{"type":"Feature","properties":{"@id":"way/560979669","highway":"service","oneway":"yes","surface":"asphalt"},"geometry":{"coordinates":[[-82.9879334,39.951978],[-82.9879499,39.9518229],[-82.9879497,39.9518162],[-82.9879466,39.9518106],[-82.9879411,39.9518055],[-82.9879314,39.9518043],[-82.9877363,39.9517964],[-82.9877227,39.951798],[-82.9877159,39.9518003],[-82.9877116,39.9518062],[-82.9877106,39.9518114],[-82.9876956,39.9519687]],"type":"LineString"}},{"type":"Feature","properties":{"@id":"way/560979670","highway":"service","oneway":"yes","surface":"asphalt"},"geometry":{"coordinates":[[-82.9883248,39.9524484],[-82.988334,39.9523575],[-82.9883596,39.9520286],[-82.9883342,39.9519936],[-82.9879334,39.951978],[-82.9876956,39.9519687],[-82.9876542,39.9519761],[-82.9876274,39.9520111],[-82.9875998,39.9523239],[-82.9875897,39.9524166]],"type":"LineString"}},{"type":"Feature","properties":{"@id":"way/566557993","highway":"service","lanes":1,"oneway":"yes"},"geometry":{"coordinates":[[-82.990697,39.9409272],[-82.9907022,39.9408625],[-82.9907103,39.9407623]],"type":"LineString"}},{"type":"Feature","properties":{"@id":"way/588427765","highway":"service"},"geometry":{"coordinates":[[-82.998429,39.9507968],[-82.9983309,39.9508074],[-82.9976454,39.9508823],[-82.9976106,39.9508627],[-82.9975281,39.9508618]],"type":"LineString"}},{"type":"Feature","properties":{"@id":"way/588427771","access":"private","highway":"service"},"geometry":{"coordinates":[[-82.997636,39.9514199],[-82.9980538,39.951368]],"type":"LineString"}},{"type":"Feature","properties":{"@id":"way/588427774","access":"private","highway":"service"},"geometry":{"coordinates":[[-82.9976171,39.9513204],[-82.9980397,39.9512698]],"type":"LineString"}},{"type":"Feature","properties":{"@id":"way/588427780","access":"private","highway":"service"},"geometry":{"coordinates":[[-82.9984273,39.9518312],[-82.9977319,39.951918]],"type":"LineString"}},{"type":"Feature","properties":{"@id":"way/588427781","access":"private","highway":"service"},"geometry":{"coordinates":[[-82.9977659,39.9520892],[-82.9980451,39.9520615]],"type":"LineString"}},{"type":"Feature","properties":{"@id":"way/588427783","access":"private","highway":"service"},"geometry":{"coordinates":[[-82.9978533,39.9525292],[-82.9982543,39.9524789]],"type":"LineString"}},{"type":"Feature","properties":{"@id":"way/589003582","highway":"service","service":"parking_aisle","surface":"asphalt"},"geometry":{"coordinates":[[-82.9976182,39.949166],[-82.9972084,39.9492096]],"type":"LineString"}},{"type":"Feature","properties":{"@id":"way/589003583","highway":"service","surface":"asphalt"},"geometry":{"coordinates":[[-82.9979465,39.9493095],[-82.9976983,39.9493231],[-82.997239,39.9493665]],"type":"LineString"}},{"type":"Feature","properties":{"@id":"way/589003586","highway":"service","surface":"asphalt"},"geometry":{"coordinates":[[-82.9979425,39.9494614],[-82.9976888,39.9494905],[-82.9976074,39.9494905],[-82.9974435,39.9494822],[-82.9973198,39.9494759],[-82.997261,39.9494795]],"type":"LineString"}},{"type":"Feature","properties":{"@id":"way/590196541","highway":"service"},"geometry":{"coordinates":[[-82.9972916,39.9482396],[-82.9970228,39.9482679]],"type":"LineString"}},{"type":"Feature","properties":{"@id":"way/590196543","access":"private","highway":"service","surface":"asphalt"},"geometry":{"coordinates":[[-82.9979546,39.9483396],[-82.9978089,39.9483557],[-82.9970571,39.9484389]],"type":"LineString"}},{"type":"Feature","properties":{"@id":"way/649675461","access":"private","highway":"service","surface":"asphalt"},"geometry":{"coordinates":[[-82.9975357,39.951808],[-82.9975911,39.9520877]],"type":"LineString"}},{"type":"Feature","properties":{"@id":"way/649675469","highway":"service","surface":"asphalt"},"geometry":{"coordinates":[[-82.9972519,39.9526693],[-82.9972281,39.9525565],[-82.9971983,39.9524153]],"type":"LineString"}},{"type":"Feature","properties":{"@id":"way/649675470","highway":"service","surface":"asphalt"},"geometry":{"coordinates":[[-82.997008,39.9525832],[-82.9972281,39.9525565]],"type":"LineString"}},{"type":"Feature","properties":{"@id":"way/649675471","access":"private","highway":"service","surface":"asphalt"},"geometry":{"coordinates":[[-82.9974865,39.9525986],[-82.9975149,39.9527358]],"type":"LineString"}},{"type":"Feature","properties":{"@id":"way/649675472","access":"private","highway":"service","surface":"asphalt"},"geometry":{"coordinates":[[-82.9973407,39.9518302],[-82.9974865,39.9525986],[-82.9978576,39.9525511]],"type":"LineString"}},{"type":"Feature","properties":{"@id":"way/660887866","highway":"service"},"geometry":{"coordinates":[[-82.9967997,39.9515245],[-82.9963928,39.9515716],[-82.9963494,39.951335]],"type":"LineString"}},{"type":"Feature","properties":{"@id":"way/660887875","highway":"service","surface":"asphalt"},"geometry":{"coordinates":[[-82.9966134,39.9519136],[-82.9966403,39.9520563]],"type":"LineString"}},{"type":"Feature","properties":{"@id":"way/735092319","highway":"service"},"geometry":{"coordinates":[[-82.993534,39.9484104],[-82.9939529,39.9483588]],"type":"LineString"}},{"type":"Feature","properties":{"@id":"way/754545328","highway":"service","service":"driveway"},"geometry":{"coordinates":[[-82.9961138,39.9436027],[-82.9964278,39.9435695]],"type":"LineString"}},{"type":"Feature","properties":{"@id":"way/754545330","highway":"service","service":"parking_aisle","surface":"paved"},"geometry":{"coordinates":[[-82.9952527,39.9391122],[-82.9956554,39.9391102]],"type":"LineString"}},{"type":"Feature","properties":{"@id":"way/754545331","highway":"service","service":"parking_aisle","surface":"paved"},"geometry":{"coordinates":[[-82.9952688,39.9392276],[-82.9955737,39.9392221],[-82.9955853,39.939368],[-82.9952991,39.9393895]],"type":"LineString"}},{"type":"Feature","properties":{"@id":"way/754545332","highway":"service","service":"parking_aisle","surface":"paved"},"geometry":{"coordinates":[[-82.9953272,39.9395402],[-82.9956422,39.9395072],[-82.9957194,39.9395477],[-82.9957398,39.9396661],[-82.9956662,39.9396741],[-82.9953585,39.9397075]],"type":"LineString"}},{"type":"Feature","properties":{"@id":"way/754545333","highway":"service","service":"parking_aisle","surface":"paved"},"geometry":{"coordinates":[[-82.9957398,39.9396661],[-82.9957469,39.9397074],[-82.9958958,39.9396902],[-82.9960559,39.9396716]],"type":"LineString"}},{"type":"Feature","properties":{"@id":"way/754545343","highway":"service","service":"parking_aisle","surface":"paved"},"geometry":{"coordinates":[[-82.9945001,39.939566],[-82.9944256,39.9395623],[-82.9935541,39.9395185],[-82.9935458,39.9396996],[-82.9935422,39.9397686]],"type":"LineString"}},{"type":"Feature","properties":{"@id":"way/754545344","highway":"service","service":"parking_aisle","surface":"paved"},"geometry":{"coordinates":[[-82.9935541,39.9395185],[-82.9935603,39.939383],[-82.993571,39.9391477]],"type":"LineString"}},{"type":"Feature","properties":{"@id":"way/754545345","highway":"service","service":"parking_aisle","surface":"paved"},"geometry":{"coordinates":[[-82.9935603,39.939383],[-82.9943976,39.939429],[-82.9944747,39.9394332]],"type":"LineString"}},{"type":"Feature","properties":{"@id":"way/754545346","highway":"service","service":"parking_aisle","surface":"paved"},"geometry":{"coordinates":[[-82.9926345,39.9392115],[-82.992713,39.9392157],[-82.9930741,39.9392349]],"type":"LineString"}},{"type":"Feature","properties":{"@id":"way/754545347","highway":"service","service":"parking_aisle","surface":"paved"},"geometry":{"coordinates":[[-82.9926411,39.9391346],[-82.9925696,39.9391301],[-82.9922419,39.9391097],[-82.9922272,39.9393151],[-82.9922143,39.9394935],[-82.9925392,39.9395097],[-82.9926083,39.9395132]],"type":"LineString"}},{"type":"Feature","properties":{"@id":"way/754545348","highway":"service","service":"parking_aisle","surface":"paved"},"geometry":{"coordinates":[[-82.9926242,39.9393302],[-82.9925538,39.9393275],[-82.9922272,39.9393151]],"type":"LineString"}},{"type":"Feature","properties":{"@id":"way/858902627","access":"private","highway":"service"},"geometry":{"coordinates":[[-82.9916722,39.9498485],[-82.9916457,39.9501462]],"type":"LineString"}},{"type":"Feature","properties":{"@id":"way/859520516","highway":"service","lanes":2,"maxspeed":"25 mph","name":"Schiller Alley","sidewalk":"no","surface":"asphalt"},"geometry":{"coordinates":[[-82.9962702,39.9443887],[-82.9954279,39.9444781]],"type":"LineString"}},{"type":"Feature","properties":{"@id":"way/860723759","access":"private","highway":"service"},"geometry":{"coordinates":[[-82.9952626,39.948505],[-82.9951371,39.9485149],[-82.9945455,39.9485736],[-82.9944516,39.9485821],[-82.9943395,39.9485915],[-82.9941745,39.9486079]],"type":"LineString"}},{"type":"Feature","properties":{"@id":"way/860723760","highway":"service"},"geometry":{"coordinates":[[-82.9941145,39.948345],[-82.9943529,39.9483187]],"type":"LineString"}},{"type":"Feature","properties":{"@id":"way/860723761","highway":"service"},"geometry":{"coordinates":[[-82.9941745,39.9486079],[-82.9941145,39.948345]],"type":"LineString"}},{"type":"Feature","properties":{"@id":"way/860723762","highway":"service"},"geometry":{"coordinates":[[-82.9943529,39.9483187],[-82.9943308,39.9482374]],"type":"LineString"}},{"type":"Feature","properties":{"@id":"way/883060197","highway":"service","service":"alley"},"geometry":{"coordinates":[[-82.9902703,39.9515342],[-82.990304,39.9510677],[-82.990333,39.9505844]],"type":"LineString"}},{"type":"Feature","properties":{"@id":"way/883060198","access":"private","highway":"service"},"geometry":{"coordinates":[[-82.9909618,39.9494575],[-82.9903358,39.9494316]],"type":"LineString"}},{"type":"Feature","properties":{"@id":"way/883196117","highway":"service","service":"alley"},"geometry":{"coordinates":[[-82.9910025,39.9456854],[-82.9909221,39.9456871],[-82.9908257,39.9456857],[-82.9907012,39.9456773],[-82.9905527,39.9456689],[-82.9903559,39.9456632],[-82.9901822,39.9456576],[-82.9900281,39.9456482],[-82.9899229,39.9456406]],"type":"LineString"}},{"type":"Feature","properties":{"@id":"way/883196119","access":"customers","highway":"service","lanes":2,"maxspeed":"25 mph","name":"Timbecker Lane","sidewalk":"no","surface":"asphalt"},"geometry":{"coordinates":[[-82.9911587,39.9464957],[-82.9906783,39.9464711]],"type":"LineString"}},{"type":"Feature","properties":{"@id":"way/897358921","highway":"service"},"geometry":{"coordinates":[[-82.9952527,39.9391122],[-82.9949926,39.9390992],[-82.9947022,39.939086],[-82.9944909,39.9390799],[-82.9944176,39.9390816]],"type":"LineString"}},{"type":"Feature","properties":{"@id":"way/897422117","highway":"service"},"geometry":{"coordinates":[[-82.9905133,39.9460035],[-82.9904669,39.9464353]],"type":"LineString"}},{"type":"Feature","properties":{"@id":"way/897437396","highway":"service"},"geometry":{"coordinates":[[-82.9881797,39.949946],[-82.9885333,39.9499562],[-82.9888342,39.9499751]],"type":"LineString"}},{"type":"Feature","properties":{"@id":"way/897440514","highway":"service"},"geometry":{"coordinates":[[-82.991589,39.950649],[-82.9916059,39.9504378],[-82.9916186,39.9503302],[-82.991648,39.9502863],[-82.9917168,39.9502872]],"type":"LineString"}},{"type":"Feature","properties":{"@id":"way/914445108","highway":"service","service":"parking_aisle"},"geometry":{"coordinates":[[-82.9922419,39.9391097],[-82.9922498,39.9390001]],"type":"LineString"}},{"type":"Feature","properties":{"@id":"way/924828258","highway":"service"},"geometry":{"coordinates":[[-82.9902703,39.9515342],[-82.9902578,39.9515842],[-82.9902459,39.9516418],[-82.9902418,39.9517369],[-82.9902341,39.9518409],[-82.9902306,39.9519386],[-82.9902319,39.9520057]],"type":"LineString"}},{"type":"Feature","properties":{"@id":"way/924828259","highway":"service"},"geometry":{"coordinates":[[-82.9889974,39.952195],[-82.9889304,39.9521844],[-82.9888598,39.9521754],[-82.9887871,39.9521671],[-82.9886967,39.9521534],[-82.9885113,39.9521369]],"type":"LineString"}},{"type":"Feature","properties":{"@id":"way/1013451631","highway":"service","service":"parking_aisle"},"geometry":{"coordinates":[[-82.9965618,39.9494491],[-82.9965417,39.949337],[-82.9963772,39.9493561]],"type":"LineString"}},{"type":"Feature","properties":{"@id":"way/1013451633","highway":"service","service":"parking_aisle"},"geometry":{"coordinates":[[-82.996425,39.9508257],[-82.9964043,39.9507083]],"type":"LineString"}},{"type":"Feature","properties":{"@id":"way/1013451634","highway":"service","service":"parking_aisle"},"geometry":{"coordinates":[[-82.9960066,39.9509295],[-82.9959732,39.9507554]],"type":"LineString"}},{"type":"Feature","properties":{"@id":"way/1013451635","highway":"service","service":"alley"},"geometry":{"coordinates":[[-82.9961918,39.9507315],[-82.99625,39.9510843]],"type":"LineString"}},{"type":"Feature","properties":{"@id":"way/1013451638","highway":"service","service":"parking_aisle","surface":"asphalt"},"geometry":{"coordinates":[[-82.9970205,39.9488559],[-82.9969896,39.9487633],[-82.9969691,39.9486326]],"type":"LineString"}},{"type":"Feature","properties":{"@id":"way/1013687941","highway":"service","service":"parking_aisle"},"geometry":{"coordinates":[[-82.9966544,39.9449695],[-82.9963883,39.9449971]],"type":"LineString"}},{"type":"Feature","properties":{"@id":"way/1013687944","highway":"service","oneway":"yes","service":"parking_aisle"},"geometry":{"coordinates":[[-82.997338,39.945164],[-82.9971904,39.9451809],[-82.9970305,39.9451993],[-82.9969722,39.945226],[-82.9964453,39.9452887]],"type":"LineString"}},{"type":"Feature","properties":{"@id":"way/1075949892","alt_name":"Stewart Avenue","highway":"residential","lanes":2,"lit":"yes","maxspeed":"25 mph","name":"East Stewart Avenue","sidewalk":"both","surface":"paving_stones"},"geometry":{"coordinates":[[-82.995816,39.942059],[-82.9950739,39.9421473],[-82.9949822,39.9421575]],"type":"LineString"}},{"type":"Feature","properties":{"@id":"way/1075949893","highway":"residential","lanes":2,"lit":"yes","maxspeed":"25 mph","name":"South Pearl Street","sidewalk":"both","surface":"paving_stones"},"geometry":{"coordinates":[[-82.9953857,39.9398687],[-82.9953751,39.9397965],[-82.9953585,39.9397075],[-82.9953272,39.9395402],[-82.9952991,39.9393895],[-82.9952688,39.9392276],[-82.995259,39.939175],[-82.9952527,39.9391122],[-82.995247,39.939055],[-82.9952274,39.9387046],[-82.995224,39.938643],[-82.9952202,39.9385833],[-82.9951975,39.9382286],[-82.9951942,39.9381762]],"type":"LineString"}},{"type":"Feature","properties":{"@id":"way/1075949894","alt_name":"Stewart Avenue","highway":"residential","lanes":2,"lit":"yes","maxspeed":"25 mph","name":"East Stewart Avenue","sidewalk":"both","surface":"paving_stones"},"geometry":{"coordinates":[[-82.9959827,39.9420404],[-82.995816,39.942059]],"type":"LineString"}},{"type":"Feature","properties":{"@id":"way/1075949898","highway":"cycleway","lit":"yes","maxspeed":"25 mph","name":"South Pearl Street","sidewalk":"both","surface":"paving_stones"},"geometry":{"coordinates":[[-82.9959606,39.9428087],[-82.9959271,39.9426315],[-82.9958323,39.9421473],[-82.995816,39.942059]],"type":"LineString"}},{"type":"Feature","properties":{"@id":"way/1112656752","crossing":"unmarked","crossing:markings":"no","footway":"crossing","highway":"footway"},"geometry":{"coordinates":[[-82.990883,39.9524702],[-82.9908261,39.9524667],[-82.990788,39.9524644]],"type":"LineString"}},{"type":"Feature","properties":{"@id":"way/1114848648","cycleway":"lane","hgv":"designated","hgv:national_network":"yes","highway":"primary","lanes":5,"lanes:backward":3,"lanes:forward":2,"lit":"yes","maxspeed":"35 mph","name":"East Livingston Avenue","name:etymology":"Alexander W. Livingston","name:etymology:wikidata":"Q2833223","old_ref:fap":11,"oneway":"no","ref":"US 33","sidewalk":"separate","source:hgv:national_network":"Title 23: Highways Part 658 http://ecfr.gpoaccess.gov/cgi/t/text/text-idx?c=ecfr&rgn=div5&view=text&node=23:1.0.1.7.33&idno=23","source:old_ref:fap":"ODOT http://www.dot.state.oh.us/Divisions/Planning/TechServ/prod_services/Pages/RI06.aspx http://www.dot.state.oh.us/Divisions/ContractAdmin/Contracts/Pages/NHS-FAP.aspx","surface":"asphalt","turn:lanes:backward":"left|through|through;right","width":"54'","width:carriageway":"54'"},"geometry":{"coordinates":[[-82.9889857,39.9524823],[-82.9888434,39.9524765],[-82.9883248,39.9524484],[-82.9880458,39.9524364]],"type":"LineString"}},{"type":"Feature","properties":{"@id":"way/1115158951","NHS":"yes","hgv":"designated","highway":"primary","lanes":1,"maxspeed":"35 mph","name":"East Livingston Avenue","oneway":"yes","sidewalk":"right","surface":"asphalt","width":"12'","width:carriageway":"12'"},"geometry":{"coordinates":[[-82.9960743,39.9526122],[-82.996059,39.9526444],[-82.9960533,39.9526574],[-82.996039,39.9526898],[-82.9960169,39.9527272],[-82.9959959,39.9527371],[-82.9959698,39.9527399],[-82.9957165,39.9527272],[-82.9952673,39.9527115]],"type":"LineString"}},{"type":"Feature","properties":{"@id":"way/1115158953","highway":"primary","lanes":1,"maxspeed":"35 mph","name":"East Livingston Avenue","oneway":"yes","sidewalk":"right","surface":"asphalt","width":"12'","width:carriageway":"12'"},"geometry":{"coordinates":[[-82.9952021,39.9527104],[-82.994763,39.9526909]],"type":"LineString"}},{"type":"Feature","properties":{"@id":"way/1115158954","highway":"primary","lanes":1,"maxspeed":"35 mph","name":"East Livingston Avenue","oneway":"yes","sidewalk":"right","surface":"asphalt","width":"12'","width:carriageway":"12'"},"geometry":{"coordinates":[[-82.994763,39.9526909],[-82.9945399,39.9526814],[-82.9944496,39.9526771]],"type":"LineString"}},{"type":"Feature","properties":{"@id":"way/1115158955","NHS":"yes","hgv":"designated","highway":"primary","lanes":1,"maxspeed":"35 mph","name":"East Livingston Avenue","oneway":"yes","sidewalk":"right","surface":"asphalt","width":"12'","width:carriageway":"12'"},"geometry":{"coordinates":[[-82.9952673,39.9527115],[-82.9952021,39.9527104]],"type":"LineString"}},{"type":"Feature","properties":{"@id":"way/1115158956","hgv":"no","highway":"tertiary","lanes":1,"lit":"yes","maxspeed":"30 mph","name":"South Third Street","oneway":"yes","placement":"left_of:1","sidewalk":"both","surface":"asphalt","width":"22'","width:carriageway":"22'"},"geometry":{"coordinates":[[-82.9961067,39.9527876],[-82.9960899,39.9526895],[-82.9960743,39.9526122]],"type":"LineString"}},{"type":"Feature","properties":{"@id":"way/1120959976","construction":"primary","hgv":"designated","hgv:national_network":"yes","highway":"construction","lanes":2,"lit":"yes","maxspeed":"35 mph","name":"East Livingston Avenue","name:etymology":"Alexander W. Livingston","name:etymology:wikidata":"Q2833223","old_ref:fap":22,"oneway":"yes","ref":"US 23","short_name":"Livingston Ave","shortest_name":"Livingston","sidewalk":"right","source:hgv:national_network":"Title 23: Highways Part 658 http://ecfr.gpoaccess.gov/cgi/t/text/text-idx?c=ecfr&rgn=div5&view=text&node=23:1.0.1.7.33&idno=23","source:old_ref:fap":"ODOT http://www.dot.state.oh.us/Divisions/Planning/TechServ/prod_services/Pages/RI06.aspx http://www.dot.state.oh.us/Divisions/ContractAdmin/Contracts/Pages/NHS-FAP.aspx","surface":"asphalt"},"geometry":{"coordinates":[[-82.99705,39.952801],[-82.996687,39.952803]],"type":"LineString"}},{"type":"Feature","properties":{"@id":"way/1124154008","cycleway":"lane","hgv":"designated","hgv:national_network":"yes","highway":"primary","lanes":3,"lanes:backward":1,"lanes:both_ways":1,"lanes:forward":1,"lit":"yes","maxspeed":"35 mph","name":"East Livingston Avenue","name:etymology":"Alexander W. Livingston","name:etymology:wikidata":"Q2833223","old_ref:fap":11,"oneway":"no","ref":"US 33","sidewalk":"separate","source:hgv:national_network":"Title 23: Highways Part 658 http://ecfr.gpoaccess.gov/cgi/t/text/text-idx?c=ecfr&rgn=div5&view=text&node=23:1.0.1.7.33&idno=23","source:old_ref:fap":"ODOT http://www.dot.state.oh.us/Divisions/Planning/TechServ/prod_services/Pages/RI06.aspx http://www.dot.state.oh.us/Divisions/ContractAdmin/Contracts/Pages/NHS-FAP.aspx","surface":"asphalt","turn:lanes:both_ways":"left","width":"32'","width:carriageway":"32'"},"geometry":{"coordinates":[[-82.9920725,39.9526157],[-82.9914647,39.9525845],[-82.9911303,39.9525695],[-82.9908176,39.9525555]],"type":"LineString"}},{"type":"Feature","properties":{"@id":"way/1124154009","hgv":"designated","hgv:national_network":"yes","highway":"primary","lanes":2,"lit":"yes","maxspeed":"35 mph","name":"East Livingston Avenue","name:etymology":"Alexander W. Livingston","name:etymology:wikidata":"Q2833223","old_ref:fap":11,"oneway":"yes","ref":"US 33","sidewalk":"right","source:hgv:national_network":"Title 23: Highways Part 658 http://ecfr.gpoaccess.gov/cgi/t/text/text-idx?c=ecfr&rgn=div5&view=text&node=23:1.0.1.7.33&idno=23","source:old_ref:fap":"ODOT http://www.dot.state.oh.us/Divisions/Planning/TechServ/prod_services/Pages/RI06.aspx http://www.dot.state.oh.us/Divisions/ContractAdmin/Contracts/Pages/NHS-FAP.aspx","surface":"asphalt","width":"22'","width:carriageway":"22'"},"geometry":{"coordinates":[[-82.9937908,39.9526499],[-82.9936805,39.9526439],[-82.9935296,39.9526604]],"type":"LineString"}},{"type":"Feature","properties":{"@id":"way/1201624461","hgv":"no","highway":"service","lanes":2,"lit":"yes","maxspeed":"25 mph","name":"Lathrop Street","service":"alley","sidewalk":"both","surface":"asphalt"},"geometry":{"coordinates":[[-82.987279,39.951667],[-82.987299,39.951397]],"type":"LineString"}},{"type":"Feature","properties":{"@id":"way/1201624462","hgv":"no","highway":"residential","lanes":2,"lit":"yes","maxspeed":"25 mph","name":"Lathrop Street","sidewalk":"both","surface":"asphalt"},"geometry":{"coordinates":[[-82.987279,39.951667],[-82.9872617,39.9518665],[-82.987253,39.9519837]],"type":"LineString"}},{"type":"Feature","properties":{"@id":"way/1273107177","alt_name":"East Redbud Alley","highway":"service","lanes":2,"maxspeed":"25 mph","name":"Redbud Alley","sidewalk":"no","surface":"asphalt"},"geometry":{"coordinates":[[-82.989859,39.940142],[-82.9888315,39.9400899],[-82.9878065,39.940038],[-82.9877351,39.9400344]],"type":"LineString"}},{"type":"Feature","properties":{"@id":"way/1273107180","highway":"residential","lanes":2,"maxspeed":"25 mph","name":"Briggs Street","sidewalk":"both","surface":"paving_stones"},"geometry":{"coordinates":[[-82.988145,39.950472],[-82.988153,39.950301],[-82.9881797,39.949946],[-82.9882248,39.949345],[-82.988257,39.948917]],"type":"LineString"}},{"type":"Feature","properties":{"@id":"way/1273107181","highway":"service","service":"alley","surface":"compacted"},"geometry":{"coordinates":[[-82.98727749125743,39.951667],[-82.987937,39.951703],[-82.988,39.951692],[-82.988046,39.951658]],"type":"LineString"}},{"type":"Feature","properties":{"@id":"way/1276672896","highway":"residential","lanes":2,"lit":"yes","maxspeed":"25 mph","name":"South Fifth Street","sidewalk":"both","surface":"asphalt"},"geometry":{"coordinates":[[-82.991632,39.946136],[-82.9916165,39.9460582],[-82.991472,39.945333],[-82.9913334,39.9446132],[-82.9913197,39.9445392]],"type":"LineString"}},{"type":"Feature","properties":{"@id":"way/1276672897","highway":"residential","lanes":2,"lit":"yes","maxspeed":"25 mph","name":"South Lane","sidewalk":"no","surface":"asphalt"},"geometry":{"coordinates":[[-82.987351,39.9507286],[-82.98705,39.9507181],[-82.986695,39.9507058]],"type":"LineString"}},{"type":"Feature","properties":{"@id":"way/1303400452","highway":"service","maxspeed":"10 mph","surface":"asphalt"},"geometry":{"coordinates":[[-82.9907361,39.9534092],[-82.9907515,39.9532509],[-82.9907671,39.9530908],[-82.9907764,39.9529951],[-82.9908124,39.952641],[-82.9908176,39.9525555]],"type":"LineString"}},{"type":"Feature","properties":{"@id":"way/1324579143","highway":"service","lanes":2,"maxspeed":"25 mph","name":"Berger Alley","service":"alley","sidewalk":"no","surface":"asphalt"},"geometry":{"coordinates":[[-82.9881017,39.9510703],[-82.987741,39.9510554],[-82.987745,39.9509656],[-82.987336,39.950942]],"type":"LineString"}},{"type":"Feature","properties":{"@id":"way/1324579146","highway":"residential","lanes":2,"maxspeed":"25 mph","name":"East Willow Street","sidewalk":"no","surface":"paving_stones"},"geometry":{"coordinates":[[-82.9942505,39.9502912],[-82.9937052,39.9502673],[-82.9936137,39.9502633]],"type":"LineString"}},{"type":"Feature","properties":{"@id":"way/1324579150","highway":"residential","lanes":2,"lit":"yes","maxspeed":"25 mph","name":"East Frankfort Street","name:etymology":"Frankfurt","name:etymology:wikidata":"Q1794","sidewalk":"no","surface":"paving_stones"},"geometry":{"coordinates":[[-82.9924681,39.9476343],[-82.9919871,39.9476123],[-82.991918,39.947609]],"type":"LineString"}},{"type":"Feature","properties":{"@id":"way/1324579151","highway":"residential","lanes":2,"lit":"yes","maxspeed":"25 mph","name":"East Frankfort Street","name:etymology":"Frankfurt","name:etymology:wikidata":"Q1794","sidewalk":"no","surface":"paving_stones"},"geometry":{"coordinates":[[-82.9905906,39.9475464],[-82.9905215,39.9475423],[-82.9900131,39.9475156],[-82.9897716,39.947503]],"type":"LineString"}},{"type":"Feature","properties":{"@id":"way/1324579249","highway":"service","lanes":2,"maxspeed":"25 mph","name":"Lathrop Street","service":"alley","sidewalk":"left","surface":"asphalt"},"geometry":{"coordinates":[[-82.987374,39.950437],[-82.9873939,39.9501748]],"type":"LineString"}},{"type":"Feature","properties":{"@id":"way/1324579252","highway":"residential","lanes":2,"lit":"yes","maxspeed":"25 mph","name":"Forest Street","name:etymology:wikidata":"Q4421","sidewalk":"no","surface":"asphalt"},"geometry":{"coordinates":[[-82.989104,39.947952],[-82.9884338,39.9479219]],"type":"LineString"}},{"type":"Feature","properties":{"@id":"way/1324579253","highway":"residential","lane_markings":"no","lanes":2,"lit":"yes","maxspeed":"25 mph","name":"South Pearl Street","parking:lane:left":"parallel","parking:lane:left:parallel":"on_street","parking:lane:right":"no","sidewalk":"left","surface":"paving_stones"},"geometry":{"coordinates":[[-82.9961138,39.9436027],[-82.9960362,39.9432007],[-82.9959606,39.9428087]],"type":"LineString"}},{"type":"Feature","properties":{"@id":"way/1324579254","highway":"residential","lanes":2,"lit":"yes","maxspeed":"25 mph","name":"South Pearl Street","sidewalk":"no","surface":"paving_stones"},"geometry":{"coordinates":[[-82.9955229,39.9405616],[-82.9954865,39.9403735],[-82.9954662,39.9402686],[-82.9954494,39.9401819],[-82.9954232,39.9400465],[-82.9954032,39.9399436],[-82.9953857,39.9398687]],"type":"LineString"}},{"type":"Feature","properties":{"@id":"way/1324579255","highway":"residential","lanes":2,"lit":"yes","maxspeed":"25 mph","name":"South Pearl Street","sidewalk":"left","surface":"paving_stones"},"geometry":{"coordinates":[[-82.995816,39.942059],[-82.995742,39.9416702],[-82.9956997,39.9414576],[-82.995613,39.941026],[-82.9955502,39.9407019],[-82.9955318,39.9406073],[-82.9955229,39.9405616]],"type":"LineString"}},{"type":"Feature","properties":{"@id":"way/1324579259","highway":"residential","lanes":2,"lit":"yes","maxspeed":"25 mph","name":"South Fourth Street","sidewalk":"both","surface":"asphalt"},"geometry":{"coordinates":[[-82.992487,39.940857],[-82.9924928,39.9407933],[-82.992539,39.940285],[-82.9925839,39.93979],[-82.9925903,39.9397182]],"type":"LineString"}},{"type":"Feature","properties":{"@id":"way/1337453701","highway":"service","service":"parking_aisle"},"geometry":{"coordinates":[[-82.9957165,39.9527272],[-82.9956646,39.9524639]],"type":"LineString"}},{"type":"Feature","properties":{"@id":"way/1337453709","cycleway":"lane","hgv":"designated","hgv:national_network":"yes","highway":"primary","lanes":3,"lanes:backward":2,"lanes:forward":1,"lit":"yes","maxspeed":"35 mph","name":"East Livingston Avenue","name:etymology":"Alexander W. Livingston","name:etymology:wikidata":"Q2833223","old_ref:fap":11,"oneway":"no","ref":"US 33","sidewalk":"separate","source:hgv:national_network":"Title 23: Highways Part 658 http://ecfr.gpoaccess.gov/cgi/t/text/text-idx?c=ecfr&rgn=div5&view=text&node=23:1.0.1.7.33&idno=23","source:old_ref:fap":"ODOT http://www.dot.state.oh.us/Divisions/Planning/TechServ/prod_services/Pages/RI06.aspx http://www.dot.state.oh.us/Divisions/ContractAdmin/Contracts/Pages/NHS-FAP.aspx","surface":"asphalt","turn:lanes:backward":"left|through;right","width":"32'","width:carriageway":"32'"},"geometry":{"coordinates":[[-82.9908176,39.9525555],[-82.990731,39.9525513],[-82.9904325,39.9525409]],"type":"LineString"}},{"type":"Feature","properties":{"@id":"way/1337453710","cycleway":"shared_lane","hgv":"designated","hgv:national_network":"yes","highway":"primary","lanes":3,"lanes:backward":2,"lanes:forward":1,"lit":"yes","maxspeed":"35 mph","name":"East Livingston Avenue","name:etymology":"Alexander W. Livingston","name:etymology:wikidata":"Q2833223","old_ref:fap":11,"oneway":"no","ref":"US 33","sidewalk":"separate","source:hgv:national_network":"Title 23: Highways Part 658 http://ecfr.gpoaccess.gov/cgi/t/text/text-idx?c=ecfr&rgn=div5&view=text&node=23:1.0.1.7.33&idno=23","source:old_ref:fap":"ODOT http://www.dot.state.oh.us/Divisions/Planning/TechServ/prod_services/Pages/RI06.aspx http://www.dot.state.oh.us/Divisions/ContractAdmin/Contracts/Pages/NHS-FAP.aspx","surface":"asphalt","width":"42'","width:carriageway":"42'"},"geometry":{"coordinates":[[-82.9932785,39.9526523],[-82.9930811,39.9526456],[-82.9927832,39.9526366],[-82.992442,39.9526265],[-82.9922007,39.9526195],[-82.9920725,39.9526157]],"type":"LineString"}},{"type":"Feature","properties":{"@id":"way/1337453712","cycleway":"lane","hgv":"designated","hgv:national_network":"yes","highway":"primary","lanes":5,"lanes:backward":2,"lanes:forward":3,"lit":"yes","maxspeed":"35 mph","name":"East Livingston Avenue","name:etymology":"Alexander W. Livingston","name:etymology:wikidata":"Q2833223","old_ref:fap":11,"oneway":"no","ref":"US 33","sidewalk":"separate","source:hgv:national_network":"Title 23: Highways Part 658 http://ecfr.gpoaccess.gov/cgi/t/text/text-idx?c=ecfr&rgn=div5&view=text&node=23:1.0.1.7.33&idno=23","source:old_ref:fap":"ODOT http://www.dot.state.oh.us/Divisions/Planning/TechServ/prod_services/Pages/RI06.aspx http://www.dot.state.oh.us/Divisions/ContractAdmin/Contracts/Pages/NHS-FAP.aspx","surface":"asphalt","turn:lanes:forward":"left|through|through;right","width":"54'","width:carriageway":"54'"},"geometry":{"coordinates":[[-82.98722,39.9524006],[-82.9866414,39.9523765],[-82.986594,39.9523748]],"type":"LineString"}},{"type":"Feature","properties":{"@id":"way/1337453713","cycleway":"lane","hgv":"designated","hgv:national_network":"yes","highway":"primary","lanes":4,"lit":"yes","maxspeed":"35 mph","name":"East Livingston Avenue","name:etymology":"Alexander W. Livingston","name:etymology:wikidata":"Q2833223","old_ref:fap":11,"oneway":"no","ref":"US 33","sidewalk":"separate","source:hgv:national_network":"Title 23: Highways Part 658 http://ecfr.gpoaccess.gov/cgi/t/text/text-idx?c=ecfr&rgn=div5&view=text&node=23:1.0.1.7.33&idno=23","source:old_ref:fap":"ODOT http://www.dot.state.oh.us/Divisions/Planning/TechServ/prod_services/Pages/RI06.aspx http://www.dot.state.oh.us/Divisions/ContractAdmin/Contracts/Pages/NHS-FAP.aspx","surface":"asphalt","width":"54'","width:carriageway":"54'"},"geometry":{"coordinates":[[-82.9880458,39.9524364],[-82.9875897,39.9524166],[-82.98722,39.9524006]],"type":"LineString"}},{"type":"Feature","properties":{"@id":"way/1338546746","highway":"tertiary","lanes":2,"lit":"yes","maxspeed":"25 mph","name":"Thurman Avenue","sidewalk":"separate","surface":"asphalt","width":"36'","width:carriageway":"36'"},"geometry":{"coordinates":[[-82.9953857,39.9398687],[-82.9945487,39.9398232],[-82.9944599,39.9398185],[-82.9935422,39.9397686],[-82.9927023,39.9397238],[-82.9925903,39.9397182],[-82.9925192,39.9397152],[-82.9907457,39.9396162],[-82.9906327,39.9396113]],"type":"LineString"}},{"type":"Feature","properties":{"@id":"way/1338546750","cycleway":"shared_lane","highway":"residential","lane_markings":"yes","lanes":2,"lit":"yes","maxspeed":"25 mph","name":"Jaeger Street","sidewalk":"both","surface":"asphalt","width":"36'","width:carriageway":"36'"},"geometry":{"coordinates":[[-82.990536,39.940753],[-82.990584,39.940183],[-82.9906253,39.9396821],[-82.9906327,39.9396113]],"type":"LineString"}},{"type":"Feature","properties":{"@id":"way/1338546752","highway":"service","lanes":1,"oneway":"yes","surface":"asphalt"},"geometry":{"coordinates":[[-82.9905196,39.9409181],[-82.9906268,39.9409236],[-82.990697,39.9409272]],"type":"LineString"}},{"type":"Feature","properties":{"@id":"way/1338546753","highway":"residential","lanes":2,"lit":"yes","maxspeed":"25 mph","name":"East Deshler Avenue","sidewalk":"separate","surface":"asphalt"},"geometry":{"coordinates":[[-82.9907103,39.9407623],[-82.9906694,39.9407601],[-82.990536,39.940753]],"type":"LineString"}}]}