{"type":"FeatureCollection","features":[{"type":"Feature","properties":{"@id":"way/556013566","highway":"service","service":"alley"},"geometry":{"coordinates":[[-82.9888812559813,39.94930012851348],[-82.9895596,39.9493258],[-82.9902135,39.9493568]],"type":"LineString"}},{"type":"Feature","properties":{"@id":"way/351915855","highway":"service","service":"alley"},"geometry":{"coordinates":[[-82.9892063,39.94747794663827],[-82.9892534,39.9468966]],"type":"LineString"}},{"type":"Feature","properties":{"@id":"way/558321040","highway":"service"},"geometry":{"coordinates":[[-82.99462010623756,39.940211605000854],[-82.9953977,39.9402716],[-82.9954662,39.9402686]],"type":"LineString"}},{"type":"Feature","properties":{"@id":"way/350684373","highway":"service","service":"alley"},"geometry":{"coordinates":[[-82.9899836,39.9449492],[-82.9908682,39.945012]],"type":"LineString"}},{"type":"Feature","properties":{"@id":"way/351915850","highway":"service","service":"alley"},"geometry":{"coordinates":[[-82.9892534,39.9468966],[-82.9892956,39.9463753]],"type":"LineString"}},{"type":"Feature","properties":{"@id":"way/554919763","highway":"service","surface":"asphalt"},"geometry":{"coordinates":[[-82.9969873,39.952485],[-82.9966947,39.9525234],[-82.996655,39.9525325],[-82.9966184,39.952547],[-82.9965899,39.9525715],[-82.9965693,39.952596],[-82.9965584,39.9526464],[-82.9965609,39.9526866]],"type":"LineString"}},{"type":"Feature","properties":{"@id":"way/554919765","highway":"service","surface":"asphalt"},"geometry":{"coordinates":[[-82.9915773,39.9520654],[-82.9915725,39.9521897],[-82.9911571,39.9521723],[-82.9908481,39.9521601]],"type":"LineString"}},{"type":"Feature","properties":{"@id":"way/554919766","highway":"service","surface":"asphalt"},"geometry":{"coordinates":[[-82.9911571,39.9521723],[-82.9911364,39.9524881],[-82.9911303,39.9525695]],"type":"LineString"}},{"type":"Feature","properties":{"@id":"way/555283048","access":"private","highway":"service","service":"parking_aisle"},"geometry":{"coordinates":[[-82.9957809,39.9511525],[-82.994929,39.9512527]],"type":"LineString"}},{"type":"Feature","properties":{"@id":"way/555283051","highway":"service","service":"parking_aisle"},"geometry":{"coordinates":[[-82.9955227,39.9514292],[-82.995499,39.9513099]],"type":"LineString"}},{"type":"Feature","properties":{"@id":"way/555283053","highway":"service","service":"parking_aisle"},"geometry":{"coordinates":[[-82.9953132,39.9514527],[-82.9952743,39.9512624]],"type":"LineString"}},{"type":"Feature","properties":{"@id":"way/555283054","highway":"service","oneway":"yes","service":"driveway","surface":"asphalt"},"geometry":{"coordinates":[[-82.9957881,39.9511898],[-82.9961482,39.9511511],[-82.9962066,39.9511591],[-82.9962521,39.951186],[-82.9962836,39.9512271],[-82.9963311,39.9513371]],"type":"LineString"}},{"type":"Feature","properties":{"@id":"way/555283081","highway":"service","service":"parking_aisle"},"geometry":{"coordinates":[[-82.9946085,39.949544],[-82.9949154,39.9495124],[-82.9948778,39.9493348],[-82.9945754,39.9493683]],"type":"LineString"}},{"type":"Feature","properties":{"@id":"way/556013567","highway":"service","service":"alley"},"geometry":{"coordinates":[[-82.9859766,39.9492505],[-82.9867837,39.949295],[-82.9874594,39.9493142],[-82.9882248,39.949345],[-82.9888773,39.9493792]],"type":"LineString"}},{"type":"Feature","properties":{"@id":"way/556041541","highway":"service","oneway":"yes","service":"parking_aisle","surface":"asphalt"},"geometry":{"coordinates":[[-82.9980735,39.9489628],[-82.9979293,39.9489802],[-82.9978142,39.948994],[-82.9971812,39.9490702]],"type":"LineString"}},{"type":"Feature","properties":{"@id":"way/556041551","highway":"service","service":"parking_aisle"},"geometry":{"coordinates":[[-82.9962216,39.9441356],[-82.9966772,39.9440863]],"type":"LineString"}},{"type":"Feature","properties":{"@id":"way/556822317","highway":"service","service":"alley"},"geometry":{"coordinates":[[-82.9900131,39.9475156],[-82.9900525,39.9469336],[-82.9900912,39.9464135],[-82.990129,39.9459844]],"type":"LineString"}},{"type":"Feature","properties":{"@id":"way/558321039","highway":"service"},"geometry":{"coordinates":[[-82.995742,39.9416702],[-82.9949961,39.9417616],[-82.9949054,39.9417727]],"type":"LineString"}},{"type":"Feature","properties":{"@id":"way/558321065","highway":"service","oneway":"yes","service":"parking_aisle","surface":"asphalt"},"geometry":{"coordinates":[[-82.9955502,39.9407019],[-82.9961421,39.9406418],[-82.9961488,39.9406798],[-82.9962158,39.9406952]],"type":"LineString"}},{"type":"Feature","properties":{"@id":"way/558321066","highway":"service","surface":"asphalt"},"geometry":{"coordinates":[[-82.9955318,39.9406073],[-82.9958241,39.9405666],[-82.9964297,39.9405028]],"type":"LineString"}},{"type":"Feature","properties":{"@id":"way/558321067","highway":"service","service":"parking_aisle","surface":"asphalt"},"geometry":{"coordinates":[[-82.9954865,39.9403735],[-82.9957827,39.9403395],[-82.9958241,39.9405666]],"type":"LineString"}},{"type":"Feature","properties":{"@id":"way/558321068","highway":"service","service":"parking_aisle","surface":"asphalt"},"geometry":{"coordinates":[[-82.9956901,39.9400156],[-82.9954232,39.9400465]],"type":"LineString"}},{"type":"Feature","properties":{"@id":"way/558321069","highway":"service","surface":"asphalt"},"geometry":{"coordinates":[[-82.9963455,39.940076],[-82.9954494,39.9401819]],"type":"LineString"}},{"type":"Feature","properties":{"@id":"way/558321142","highway":"service","surface":"asphalt"},"geometry":{"coordinates":[[-82.9961057,39.9431919],[-82.9960362,39.9432007]],"type":"LineString"}},{"type":"Feature","properties":{"@id":"way/558321149","highway":"service","surface":"asphalt"},"geometry":{"coordinates":[[-82.9959606,39.9428087],[-82.9962046,39.9427929],[-82.9966688,39.9427629],[-82.9966906,39.9427628],[-82.9967281,39.9427599],[-82.996867,39.942744]],"type":"LineString"}},{"type":"Feature","properties":{"@id":"way/560110625","highway":"service","surface":"asphalt"},"geometry":{"coordinates":[[-82.9956997,39.9414576],[-82.9960951,39.9414129]],"type":"LineString"}},{"type":"Feature","properties":{"@id":"way/560453331","highway":"service","surface":"asphalt"},"geometry":{"coordinates":[[-82.9896832,39.9421031],[-82.9903359,39.9421416],[-82.9904051,39.9421456]],"type":"LineString"}},{"type":"Feature","properties":{"@id":"way/560461932","highway":"service","surface":"asphalt"},"geometry":{"coordinates":[[-82.9893936,39.9521725],[-82.9890001,39.952158]],"type":"LineString"}},{"type":"Feature","properties":{"@id":"way/560461934","highway":"service","surface":"asphalt"},"geometry":{"coordinates":[[-82.9895469,39.9519738],[-82.9895371,39.9520676],[-82.9893936,39.9521725],[-82.9893718,39.9524031],[-82.9893686,39.9524961]],"type":"LineString"}},{"type":"Feature","properties":{"@id":"way/560461945","highway":"service"},"geometry":{"coordinates":[[-82.9924596,39.9523104],[-82.9927383,39.9523267]],"type":"LineString"}},{"type":"Feature","properties":{"@id":"way/560461946","highway":"service"},"geometry":{"coordinates":[[-82.9919803,39.9520811],[-82.9919618,39.9522835]],"type":"LineString"}},{"type":"Feature","properties":{"@id":"way/560979665","highway":"service","surface":"asphalt"},"geometry":{"coordinates":[[-82.987253,39.9519837],[-82.9867359,39.9519572],[-82.9866231,39.9519515]],"type":"LineString"}},{"type":"Feature","properties":{"@id":"way/560979669","highway":"service","oneway":"yes","surface":"asphalt"},"geometry":{"coordinates":[[-82.9879334,39.951978],[-82.9879499,39.9518229],[-82.9879497,39.9518162],[-82.9879466,39.9518106],[-82.9879411,39.9518055],[-82.9879314,39.9518043],[-82.9877363,39.9517964],[-82.9877227,39.951798],[-82.9877159,39.9518003],[-82.9877116,39.9518062],[-82.9877106,39.9518114],[-82.9876956,39.9519687]],"type":"LineString"}},{"type":"Feature","properties":{"@id":"way/560979670","highway":"service","oneway":"yes","surface":"asphalt"},"geometry":{"coordinates":[[-82.9883248,39.9524484],[-82.988334,39.9523575],[-82.9883596,39.9520286],[-82.9883342,39.9519936],[-82.9879334,39.951978],[-82.9876956,39.9519687],[-82.9876542,39.9519761],[-82.9876274,39.9520111],[-82.9875998,39.9523239],[-82.9875897,39.9524166]],"type":"LineString"}},{"type":"Feature","properties":{"@id":"way/566557993","highway":"service","lanes":1,"oneway":"yes"},"geometry":{"coordinates":[[-82.990697,39.9409272],[-82.9907022,39.9408625],[-82.9907103,39.9407623]],"type":"LineString"}},{"type":"Feature","properties":{"@id":"way/588427765","highway":"service"},"geometry":{"coordinates":[[-82.998429,39.9507968],[-82.9983309,39.9508074],[-82.9976454,39.9508823],[-82.9976106,39.9508627],[-82.9975281,39.9508618]],"type":"LineString"}},{"type":"Feature","properties":{"@id":"way/588427771","access":"private","highway":"service"},"geometry":{"coordinates":[[-82.997636,39.9514199],[-82.9980538,39.951368]],"type":"LineString"}},{"type":"Feature","properties":{"@id":"way/588427774","access":"private","highway":"service"},"geometry":{"coordinates":[[-82.9976171,39.9513204],[-82.9980397,39.9512698]],"type":"LineString"}},{"type":"Feature","properties":{"@id":"way/588427780","access":"private","highway":"service"},"geometry":{"coordinates":[[-82.9984273,39.9518312],[-82.9977319,39.951918]],"type":"LineString"}},{"type":"Feature","properties":{"@id":"way/588427781","access":"private","highway":"service"},"geometry":{"coordinates":[[-82.9977659,39.9520892],[-82.9980451,39.9520615]],"type":"LineString"}},{"type":"Feature","properties":{"@id":"way/588427783","access":"private","highway":"service"},"geometry":{"coordinates":[[-82.9978533,39.9525292],[-82.9982543,39.9524789]],"type":"LineString"}},{"type":"Feature","properties":{"@id":"way/589003582","highway":"service","service":"parking_aisle","surface":"asphalt"},"geometry":{"coordinates":[[-82.9976182,39.949166],[-82.9972084,39.9492096]],"type":"LineString"}},{"type":"Feature","properties":{"@id":"way/589003583","highway":"service","surface":"asphalt"},"geometry":{"coordinates":[[-82.9979465,39.9493095],[-82.9976983,39.9493231],[-82.997239,39.9493665]],"type":"LineString"}},{"type":"Feature","properties":{"@id":"way/589003586","highway":"service","surface":"asphalt"},"geometry":{"coordinates":[[-82.9979425,39.9494614],[-82.9976888,39.9494905],[-82.9976074,39.9494905],[-82.9974435,39.9494822],[-82.9973198,39.9494759],[-82.997261,39.9494795]],"type":"LineString"}},{"type":"Feature","properties":{"@id":"way/590196541","highway":"service"},"geometry":{"coordinates":[[-82.9972916,39.9482396],[-82.9970228,39.9482679]],"type":"LineString"}},{"type":"Feature","properties":{"@id":"way/590196543","access":"private","highway":"service","surface":"asphalt"},"geometry":{"coordinates":[[-82.9979546,39.9483396],[-82.9978089,39.9483557],[-82.9970571,39.9484389]],"type":"LineString"}},{"type":"Feature","properties":{"@id":"way/649675461","access":"private","highway":"service","surface":"asphalt"},"geometry":{"coordinates":[[-82.9975357,39.951808],[-82.9975911,39.9520877]],"type":"LineString"}},{"type":"Feature","properties":{"@id":"way/649675469","highway":"service","surface":"asphalt"},"geometry":{"coordinates":[[-82.9972519,39.9526693],[-82.9972281,39.9525565],[-82.9971983,39.9524153]],"type":"LineString"}},{"type":"Feature","properties":{"@id":"way/649675470","highway":"service","surface":"asphalt"},"geometry":{"coordinates":[[-82.997008,39.9525832],[-82.9972281,39.9525565]],"type":"LineString"}},{"type":"Feature","properties":{"@id":"way/649675471","access":"private","highway":"service","surface":"asphalt"},"geometry":{"coordinates":[[-82.9974865,39.9525986],[-82.9975149,39.9527358]],"type":"LineString"}},{"type":"Feature","properties":{"@id":"way/649675472","access":"private","highway":"service","surface":"asphalt"},"geometry":{"coordinates":[[-82.9973407,39.9518302],[-82.9974865,39.9525986],[-82.9978576,39.9525511]],"type":"LineString"}},{"type":"Feature","properties":{"@id":"way/660887866","highway":"service"},"geometry":{"coordinates":[[-82.9967997,39.9515245],[-82.9963928,39.9515716],[-82.9963494,39.951335]],"type":"LineString"}},{"type":"Feature","properties":{"@id":"way/660887875","highway":"service","surface":"asphalt"},"geometry":{"coordinates":[[-82.9966134,39.9519136],[-82.9966403,39.9520563]],"type":"LineString"}},{"type":"Feature","properties":{"@id":"way/735092319","highway":"service"},"geometry":{"coordinates":[[-82.993534,39.9484104],[-82.9939529,39.9483588]],"type":"LineString"}},{"type":"Feature","properties":{"@id":"way/754545328","highway":"service","service":"driveway"},"geometry":{"coordinates":[[-82.9961138,39.9436027],[-82.9964278,39.9435695]],"type":"LineString"}},{"type":"Feature","properties":{"@id":"way/754545330","highway":"service","service":"parking_aisle","surface":"paved"},"geometry":{"coordinates":[[-82.9952527,39.9391122],[-82.9956554,39.9391102]],"type":"LineString"}},{"type":"Feature","properties":{"@id":"way/754545331","highway":"service","service":"parking_aisle","surface":"paved"},"geometry":{"coordinates":[[-82.9952688,39.9392276],[-82.9955737,39.9392221],[-82.9955853,39.939368],[-82.9952991,39.9393895]],"type":"LineString"}},{"type":"Feature","properties":{"@id":"way/754545332","highway":"service","service":"parking_aisle","surface":"paved"},"geometry":{"coordinates":[[-82.9953272,39.9395402],[-82.9956422,39.9395072],[-82.9957194,39.9395477],[-82.9957398,39.9396661],[-82.9956662,39.9396741],[-82.9953585,39.9397075]],"type":"LineString"}},{"type":"Feature","properties":{"@id":"way/754545333","highway":"service","service":"parking_aisle","surface":"paved"},"geometry":{"coordinates":[[-82.9957398,39.9396661],[-82.9957469,39.9397074],[-82.9958958,39.9396902],[-82.9960559,39.9396716]],"type":"LineString"}},{"type":"Feature","properties":{"@id":"way/754545343","highway":"service","service":"parking_aisle","surface":"paved"},"geometry":{"coordinates":[[-82.9945001,39.939566],[-82.9944256,39.9395623],[-82.9935541,39.9395185],[-82.9935458,39.9396996],[-82.9935422,39.9397686]],"type":"LineString"}},{"type":"Feature","properties":{"@id":"way/754545344","highway":"service","service":"parking_aisle","surface":"paved"},"geometry":{"coordinates":[[-82.9935541,39.9395185],[-82.9935603,39.939383],[-82.993571,39.9391477]],"type":"LineString"}},{"type":"Feature","properties":{"@id":"way/754545345","highway":"service","service":"parking_aisle","surface":"paved"},"geometry":{"coordinates":[[-82.9935603,39.939383],[-82.9943976,39.939429],[-82.9944747,39.9394332]],"type":"LineString"}},{"type":"Feature","properties":{"@id":"way/754545346","highway":"service","service":"parking_aisle","surface":"paved"},"geometry":{"coordinates":[[-82.9926345,39.9392115],[-82.992713,39.9392157],[-82.9930741,39.9392349]],"type":"LineString"}},{"type":"Feature","properties":{"@id":"way/754545347","highway":"service","service":"parking_aisle","surface":"paved"},"geometry":{"coordinates":[[-82.9926411,39.9391346],[-82.9925696,39.9391301],[-82.9922419,39.9391097],[-82.9922272,39.9393151],[-82.9922143,39.9394935],[-82.9925392,39.9395097],[-82.9926083,39.9395132]],"type":"LineString"}},{"type":"Feature","properties":{"@id":"way/754545348","highway":"service","service":"parking_aisle","surface":"paved"},"geometry":{"coordinates":[[-82.9926242,39.9393302],[-82.9925538,39.9393275],[-82.9922272,39.9393151]],"type":"LineString"}},{"type":"Feature","properties":{"@id":"way/858902627","access":"private","highway":"service"},"geometry":{"coordinates":[[-82.9916722,39.9498485],[-82.9916457,39.9501462]],"type":"LineString"}},{"type":"Feature","properties":{"@id":"way/860723759","access":"private","highway":"service"},"geometry":{"coordinates":[[-82.9952626,39.948505],[-82.9951371,39.9485149],[-82.9945455,39.9485736],[-82.9944516,39.9485821],[-82.9943395,39.9485915],[-82.9941745,39.9486079]],"type":"LineString"}},{"type":"Feature","properties":{"@id":"way/860723760","highway":"service"},"geometry":{"coordinates":[[-82.9941145,39.948345],[-82.9943529,39.9483187]],"type":"LineString"}},{"type":"Feature","properties":{"@id":"way/860723761","highway":"service"},"geometry":{"coordinates":[[-82.9941745,39.9486079],[-82.9941145,39.948345]],"type":"LineString"}},{"type":"Feature","properties":{"@id":"way/860723762","highway":"service"},"geometry":{"coordinates":[[-82.9943529,39.9483187],[-82.9943308,39.9482374]],"type":"LineString"}},{"type":"Feature","properties":{"@id":"way/883060197","highway":"service","service":"alley"},"geometry":{"coordinates":[[-82.9902703,39.9515342],[-82.990304,39.9510677],[-82.990333,39.9505844]],"type":"LineString"}},{"type":"Feature","properties":{"@id":"way/883060198","access":"private","highway":"service"},"geometry":{"coordinates":[[-82.9909618,39.9494575],[-82.9903358,39.9494316]],"type":"LineString"}},{"type":"Feature","properties":{"@id":"way/883196117","highway":"service","service":"alley"},"geometry":{"coordinates":[[-82.9910025,39.9456854],[-82.9909221,39.9456871],[-82.9908257,39.9456857],[-82.9907012,39.9456773],[-82.9905527,39.9456689],[-82.9903559,39.9456632],[-82.9901822,39.9456576],[-82.9900281,39.9456482],[-82.9899229,39.9456406]],"type":"LineString"}},{"type":"Feature","properties":{"@id":"way/897358921","highway":"service"},"geometry":{"coordinates":[[-82.9952527,39.9391122],[-82.9949926,39.9390992],[-82.9947022,39.939086],[-82.9944909,39.9390799],[-82.9944176,39.9390816]],"type":"LineString"}},{"type":"Feature","properties":{"@id":"way/897422117","highway":"service"},"geometry":{"coordinates":[[-82.9905133,39.9460035],[-82.9904669,39.9464353]],"type":"LineString"}},{"type":"Feature","properties":{"@id":"way/897437396","highway":"service"},"geometry":{"coordinates":[[-82.9881797,39.949946],[-82.9885333,39.9499562],[-82.9888342,39.9499751]],"type":"LineString"}},{"type":"Feature","properties":{"@id":"way/897440514","highway":"service"},"geometry":{"coordinates":[[-82.991589,39.950649],[-82.9916059,39.9504378],[-82.9916186,39.9503302],[-82.991648,39.9502863],[-82.9917168,39.9502872]],"type":"LineString"}},{"type":"Feature","properties":{"@id":"way/914445108","highway":"service","service":"parking_aisle"},"geometry":{"coordinates":[[-82.9922419,39.9391097],[-82.9922498,39.9390001]],"type":"LineString"}},{"type":"Feature","properties":{"@id":"way/924828258","highway":"service"},"geometry":{"coordinates":[[-82.9902703,39.9515342],[-82.9902578,39.9515842],[-82.9902459,39.9516418],[-82.9902418,39.9517369],[-82.9902341,39.9518409],[-82.9902306,39.9519386],[-82.9902319,39.9520057]],"type":"LineString"}},{"type":"Feature","properties":{"@id":"way/924828259","highway":"service"},"geometry":{"coordinates":[[-82.9889974,39.952195],[-82.9889304,39.9521844],[-82.9888598,39.9521754],[-82.9887871,39.9521671],[-82.9886967,39.9521534],[-82.9885113,39.9521369]],"type":"LineString"}},{"type":"Feature","properties":{"@id":"way/1013451631","highway":"service","service":"parking_aisle"},"geometry":{"coordinates":[[-82.9965618,39.9494491],[-82.9965417,39.949337],[-82.9963772,39.9493561]],"type":"LineString"}},{"type":"Feature","properties":{"@id":"way/1013451633","highway":"service","service":"parking_aisle"},"geometry":{"coordinates":[[-82.996425,39.9508257],[-82.9964043,39.9507083]],"type":"LineString"}},{"type":"Feature","properties":{"@id":"way/1013451634","highway":"service","service":"parking_aisle"},"geometry":{"coordinates":[[-82.9960066,39.9509295],[-82.9959732,39.9507554]],"type":"LineString"}},{"type":"Feature","properties":{"@id":"way/1013451635","highway":"service","service":"alley"},"geometry":{"coordinates":[[-82.9961918,39.9507315],[-82.99625,39.9510843]],"type":"LineString"}},{"type":"Feature","properties":{"@id":"way/1013451638","highway":"service","service":"parking_aisle","surface":"asphalt"},"geometry":{"coordinates":[[-82.9970205,39.9488559],[-82.9969896,39.9487633],[-82.9969691,39.9486326]],"type":"LineString"}},{"type":"Feature","properties":{"@id":"way/1013687941","highway":"service","service":"parking_aisle"},"geometry":{"coordinates":[[-82.9966544,39.9449695],[-82.9963883,39.9449971]],"type":"LineString"}},{"type":"Feature","properties":{"@id":"way/1013687944","highway":"service","oneway":"yes","service":"parking_aisle"},"geometry":{"coordinates":[[-82.997338,39.945164],[-82.9971904,39.9451809],[-82.9970305,39.9451993],[-82.9969722,39.945226],[-82.9964453,39.9452887]],"type":"LineString"}},{"type":"Feature","properties":{"@id":"way/1112656752","crossing":"unmarked","crossing:markings":"no","footway":"crossing","highway":"footway"},"geometry":{"coordinates":[[-82.990883,39.9524702],[-82.9908261,39.9524667],[-82.990788,39.9524644]],"type":"LineString"}},{"type":"Feature","properties":{"@id":"way/1273107181","highway":"service","service":"alley","surface":"compacted"},"geometry":{"coordinates":[[-82.98727749125743,39.951667],[-82.987937,39.951703],[-82.988,39.951692],[-82.988046,39.951658]],"type":"LineString"}},{"type":"Feature","properties":{"@id":"way/1303400452","highway":"service","maxspeed":"10 mph","surface":"asphalt"},"geometry":{"coordinates":[[-82.9907361,39.9534092],[-82.9907515,39.9532509],[-82.9907671,39.9530908],[-82.9907764,39.9529951],[-82.9908124,39.952641],[-82.9908176,39.9525555]],"type":"LineString"}},{"type":"Feature","properties":{"@id":"way/1337453701","highway":"service","service":"parking_aisle"},"geometry":{"coordinates":[[-82.9957165,39.9527272],[-82.9956646,39.9524639]],"type":"LineString"}},{"type":"Feature","properties":{"@id":"way/1338546752","highway":"service","lanes":1,"oneway":"yes","surface":"asphalt"},"geometry":{"coordinates":[[-82.9905196,39.9409181],[-82.9906268,39.9409236],[-82.990697,39.9409272]],"type":"LineString"}}]}